"scientificname"	"longitude"	"latitude"	"collectioncode"	"catalognumber"	"identifiedby"	"country"	"stateprovince"	"county"	"locality"	"daycollected"	"monthcollected"	"yearcollected"	"collector"	"collectornumber"	"notes"	"source"	"remove.type"
"Cavanillesia arborea (Willd.) K.Schum."	NA	NA	"CVRD"	"14487"	"Folli, D. A"	"Brazil"	"Es"	NA	NA	13	8	2013	"Folli, D.A."	"7103"	"Mata de aluvial na cabruca cacau. <ll>dwc_commonname:</ll> Barriguda"	"gbif"	"lat. NA"
"Cavanillesia umbellata Ruiz & Pav."	NA	NA	"HUEFS"	"171827"	NA	"Brazil"	"Bahia"	NA	"localidade de Porto Novo, 8km da vila em direção a Santana."	15	3	2011	"Carvalho-Sobrinho, J.G.de"	"2987"	"Caatinga sobre afloramentos calcários."	"gbif"	"lat. NA"
"Cavanillesia arborea (Willd.) K.Schum."	NA	NA	"HUEFS"	"122632"	NA	"Brazil"	"Bahia"	NA	NA	2	7	2007	"Santos, R.M."	"1695"	"Transição caatinga - Floresta"	"gbif"	"lat. NA"
"Cavanillesia arborea (Willd.) K.Schum."	NA	NA	"CVRD"	"10544"	"Folli, D. A."	"Brazil"	"Mg"	NA	NA	7	11	2007	"Folli, D.A."	"5762"	"<ll>dwc_commonname:</ll> Barriguda"	"gbif"	"lat. NA"
"Cavanillesia arborea (Willd.) K.Schum."	NA	NA	"CVRD"	"9823"	"Folli, D. A."	"Brazil"	"Es"	NA	NA	1	11	2006	"Folli, D.A."	"5395"	"Fazenda 3 Marias <ll>dwc_commonname:</ll> Barriguda"	"gbif"	"lat. NA"
"Cavanillesia umbellata Ruiz & Pav."	NA	NA	"HPL"	"4291"	"V.C. Souza"	"Brazil"	"Ba"	NA	"Coletada na estrada para Barreiras."	18	8	1994	"H. Lorenzi"	"1601"	NA	"gbif"	"lat. NA"
"Cavanillesia umbellata Ruiz & Pav."	NA	NA	"HPL"	"4292"	"V.C. Souza"	"Brazil"	"Mg"	NA	"Coletada na fazenda Santa cecília de Sebastião Mentans."	18	8	1994	"H. Lorenzi"	"1649"	NA	"gbif"	"lat. NA"
"Cavanillesia arborea (Willd.) K.Schum."	NA	NA	"Botany"	"2206906"	NA	"Brazil"	"GoiÃ¡s"	"Flores de Goias"	"Alvorada do Norte."	9	9	1994	"B. A. S. Pereira"	"2615"	NA	"gbif"	"lat. NA"
"Cavanillesia umbellata Ruiz & Pav."	NA	NA	"MO"	"1715469"	"R. Foster, 89"	"Bolivia, Plurinational State of"	"Beni"	NA	NA	29	5	1992	"Stephan G. Beck"	"Beck 16640"	NA	"gbif"	"lat. NA"
"Cavanillesia arborea (Willd.) K.Schum."	NA	NA	"HUEFS"	"24143"	NA	"Brazil"	"Goiás"	NA	NA	16	8	1990	"Cavalcanti, T.B."	"713"	NA	"gbif"	"lat. NA"
"Cavanillesia umbellata Ruiz & Pav."	NA	NA	"MO"	"3057560"	NA	"Peru"	"Loreto"	NA	"Km. 98 d ela Carretera Pucallpa-Huanuco. Prov. Coronel Portillo, Calleria.bosque tropical seco."	3	7	1968	"Salas"	"Salas 19"	NA	"gbif"	"lat. NA"
"Cavanillesia arborea (Willd.) K.Schum."	NA	NA	"Botany"	"704540"	NA	"Brazil"	"Bahia"	NA	"Forests of Rio Grongogy Basin, State of Bahia"	1	10	1915	"H. M. Curran"	"s.n."	NA	"gbif"	"lat. NA"
"Cavanillesia umbellata Ruiz & Pav."	NA	NA	"MO"	"1910365"	NA	"Peru"	NA	NA	"Vulg. Pipio et arbol del amber in Peruvia ad Huayaguil."	NA	NA	1799	"Hipólito Ruiz L.|José A. Pavón"	"Ruiz López 1646"	NA	"gbif"	"lat. NA"
"Cavanillesia arborea (Willd.) K.Schum."	NA	NA	"Botany"	"USw31652"	NA	"Brazil"	"Minas Gerais"	NA	NA	NA	NA	NA	"A. Mattos"	"RB 90037"	NA	"gbif"	"lat. NA"
"Cavanillesia arborea (Willd.) K.Schum."	NA	NA	"Botany"	"L.1068454"	NA	"Brazil"	"Bahía"	NA	"Rio Crongogy"	NA	NA	NA	"Curran  HM"	NA	NA	"gbif"	"lat. NA"
"Cavanillesia arborea (Willd.) K.Schum."	NA	NA	"Botany"	"L.1068453"	NA	"unknown or invalid"	NA	NA	NA	NA	NA	NA	"Unknown"	NA	NA	"gbif"	"lat. NA"
"Cavanillesia arborea (Willd.) K.Schum."	NA	NA	"CEN"	"23207"	NA	"Brazil"	"Go"	NA	"Estrada de terra Campos Belos - Divinópolis de Goiás; a 20 km do entroncamento com a GO-118."	NA	NA	NA	"Taciana Barbosa Cavalcanti"	"713"	"8 m altura."	"gbif"	"lat. NA"
"Cavanillesia umbellata Ruiz & Pav."	NA	NA	"VascularPlants"	"S-PLE-E4306"	NA	NA	NA	NA	"Ex. Herb. Madrid"	NA	NA	NA	NA	NA	"R. C. P. 1778-88"	"gbif"	"lat. NA"
"Cavanillesia arborea (Willd.) K.Schum."	NA	NA	"Botany"	"U  0050635"	NA	"Brazil"	"Bahía"	NA	"Rio Crongogy"	NA	NA	NA	"Curran  HM"	NA	NA	"gbif"	"lat. NA"
"Cavanillesia arborea (Willd.) K.Schum."	NA	NA	"Botany"	"USw9863"	NA	"Brazil"	"Minas Gerais"	NA	NA	NA	NA	NA	"Collector unknown"	"s.n."	NA	"gbif"	"lat. NA"
"Cavanillesia arborea (Willd.) K.Schum."	NA	NA	"Botany"	"U  0261147"	NA	"Brazil"	NA	NA	NA	NA	NA	NA	"Unknown"	NA	NA	"gbif"	"lat. NA"
"Cavanillesia arborea (Willd.) K.Schum."	NA	NA	"Botany"	"USw2685"	NA	"Brazil"	"Minas Gerais"	NA	NA	NA	NA	NA	"H. M. Curran"	"s.n."	NA	"gbif"	"lat. NA"
"Cavanillesia arborea (Willd.) K.Schum."	NA	NA	"CVRD"	"14487"	"Folli, D. A"	"Brazil"	"Es"	NA	NA	13	8	2013	"Folli, D.A."	"7103"	"Mata de aluvial na cabruca cacau. <ll>dwc_commonname:</ll> Barriguda"	"gbif"	"lat. NA"
"Cavanillesia arborea (Willd.) K.Schum."	NA	NA	"HUEFS"	"122632"	NA	"Brazil"	"Bahia"	NA	NA	2	7	2007	"Santos, R.M."	"1695"	"Transição caatinga - Floresta"	"gbif"	"lat. NA"
"Cavanillesia arborea (Willd.) K.Schum."	NA	NA	"CVRD"	"10544"	"Folli, D. A."	"Brazil"	"Mg"	NA	NA	7	11	2007	"Folli, D.A."	"5762"	"<ll>dwc_commonname:</ll> Barriguda"	"gbif"	"lat. NA"
"Cavanillesia arborea (Willd.) K.Schum."	NA	NA	"CVRD"	"9823"	"Folli, D. A."	"Brazil"	"Es"	NA	NA	1	11	2006	"Folli, D.A."	"5395"	"Fazenda 3 Marias <ll>dwc_commonname:</ll> Barriguda"	"gbif"	"lat. NA"
"Cavanillesia arborea (Willd.) K.Schum."	NA	NA	"Botany"	"2206906"	NA	"Brazil"	"GoiÃ¡s"	"Flores de Goias"	"Alvorada do Norte."	9	9	1994	"B. A. S. Pereira"	"2615"	NA	"gbif"	"lat. NA"
"Cavanillesia arborea (Willd.) K.Schum."	NA	NA	"HUEFS"	"24143"	NA	"Brazil"	"Goiás"	NA	NA	16	8	1990	"Cavalcanti, T.B."	"713"	NA	"gbif"	"lat. NA"
"Cavanillesia arborea (Willd.) K.Schum."	NA	NA	"Botany"	"704540"	NA	"Brazil"	"Bahia"	NA	"Forests of Rio Grongogy Basin, State of Bahia"	1	10	1915	"H. M. Curran"	"s.n."	NA	"gbif"	"lat. NA"
"Cavanillesia arborea (Willd.) K.Schum."	NA	NA	"Botany"	"USw31652"	NA	"Brazil"	"Minas Gerais"	NA	NA	NA	NA	NA	"A. Mattos"	"RB 90037"	NA	"gbif"	"lat. NA"
"Cavanillesia arborea (Willd.) K.Schum."	NA	NA	"Botany"	"L.1068454"	NA	"Brazil"	"Bahía"	NA	"Rio Crongogy"	NA	NA	NA	"Curran  HM"	NA	NA	"gbif"	"lat. NA"
"Cavanillesia arborea (Willd.) K.Schum."	NA	NA	"Botany"	"L.1068453"	NA	"unknown or invalid"	NA	NA	NA	NA	NA	NA	"Unknown"	NA	NA	"gbif"	"lat. NA"
"Cavanillesia arborea (Willd.) K.Schum."	NA	NA	"CEN"	"23207"	NA	"Brazil"	"Go"	NA	"Estrada de terra Campos Belos - Divinópolis de Goiás; a 20 km do entroncamento com a GO-118."	NA	NA	NA	"Taciana Barbosa Cavalcanti"	"713"	"8 m altura."	"gbif"	"lat. NA"
"Cavanillesia arborea (Willd.) K.Schum."	NA	NA	"Botany"	"U  0050635"	NA	"Brazil"	"Bahía"	NA	"Rio Crongogy"	NA	NA	NA	"Curran  HM"	NA	NA	"gbif"	"lat. NA"
"Cavanillesia arborea (Willd.) K.Schum."	NA	NA	"Botany"	"USw9863"	NA	"Brazil"	"Minas Gerais"	NA	NA	NA	NA	NA	"Collector unknown"	"s.n."	NA	"gbif"	"lat. NA"
"Cavanillesia arborea (Willd.) K.Schum."	NA	NA	"Botany"	"U  0261147"	NA	"Brazil"	NA	NA	NA	NA	NA	NA	"Unknown"	NA	NA	"gbif"	"lat. NA"
"Cavanillesia arborea (Willd.) K.Schum."	NA	NA	"Botany"	"USw2685"	NA	"Brazil"	"Minas Gerais"	NA	NA	NA	NA	NA	"H. M. Curran"	"s.n."	NA	"gbif"	"lat. NA"
"Cavanillesia arborea K.Schum."	NA	NA	"RB"	"584726"	"D.A. Folli"	"Brasil"	"Esp<ed>rito Santo"	"Linhares"	"Linhares a Colatina Beira Rio. "	13	8	2013	"Folli, D.A."	"7103"	"Terrestre, bot<e3>o marrom, flor branca"	"jabot"	"lat. NA"
"Cavanillesia arborea K.Schum."	NA	NA	"RB"	"336742"	"J. Teixeira"	"Brasil"	"Goi<e1>s"	"Guarani de Goi<e1>s"	"Km 16 da estrada Posse/ Guarani de Goi<e1>s. "	13	8	1995	"Pereira, B.A.S."	"2819"	"<c1>rvore decidua, 18 m alt. frutos imaturos coor verde-amarelado."	"jabot"	"lat. NA"
"Cavanillesia arborea K.Schum."	NA	NA	"RB"	"330969"	"B.A. S. Pereira"	"Brasil"	"Goi<e1>s"	"Guarani de Goi<e1>s"	"Prox<ed>mo <e1> Vila Clarentina. . "	4	7	1996	"Pereira, B.A.S."	"3121"	"<c0>rvore dec<ed>dua, ca. 20m alt. Tronco espesso, em forma de tonel. Corola alva ; c<e1>lice avaermelhado. "	"jabot"	"lat. NA"
"Cavanillesia arborea K.Schum."	NA	NA	"RB"	"284152"	"J. Teixeira"	"Brasil"	"Goi<e1>s"	""	"A margem da BR- 020, 10 km ap<f3>s a cidade de Alvorada do Norte. "	8	10	1988	"Pereira, B.A.S."	NA	"<c1>rvore ca. 12m de alt. com grande protuberancia no tronco, dec<ed>dua. Frutos quase maduros com sementes comidas por psitacideos."	"jabot"	"lat. NA"
"Cavanillesia arborea K.Schum."	NA	NA	"RB"	"603590"	"D.A. Folli"	"Brasil"	"Minas Gerais"	"Itueta"	"Estrada de Quatituba <e0> Taba<fa>ba. "	3	9	2009	"A.A. Luz"	"508"	"Arb<f3>rea, terrestre, bot<e3>o verde, flor branca, exuda<e7><e3>o incolor, descama<e7><e3>o ausente, fuste cil<ed>ndrico, casca <e1>spera, 15 m de altura, fuste com 3 m de altura e 150 cm de cap, copa com 10 m de di<e2>metro. Exuda<e7><e3>o: Seiva
"	"jabot"	"lat. NA"
"Cavanillesia arborea K.Schum."	NA	NA	"RB"	"255250"	"M. Nadruz"	"Brasil"	"Rio de Janeiro"	"Rio de Janeiro"	"Jardim Bot<e2>nico. "	7	10	1986	"Nadruz, M."	NA	"<c0>rvore, 15 m de alt. sem folhas, frutos grandes alaranjados, <e1>rvore n<U+00B0> 493 cultivado."	"jabot"	"lat. NA"
"Cavanillesia arborea K.Schum."	NA	NA	"RB"	"603531"	"D.A. Folli"	"Brasil"	"Esp<ed>rito Santo"	"Linhares"	"Fazenda Tr<ea>s Marias,  Beira Rio Linhares <e0> Colatina. "	1	11	2006	"Folli, D.A."	"5395"	"Arb<f3>rea, 30 m de altura, Terrestre, fruto maduro marrom, fruto imaturo verde, exuda<e7><e3>o incolor, descama<e7><e3>o ausente, fuste cil<ed>ndrico, casca <e1>spera, fuste com 20 m de altura, copa com 5 m de di<e2>metro. Exuda<e7><e3>o: Seiva"	"jabot"	"lat. NA"
"Cavanillesia arborea K.Schum."	NA	NA	"RB"	"363683"	"B.A. S. Pereira"	"Brasil"	"Goi<e1>s"	"Posse"	"No km 15 da estrada Posse / Guarani de Goi<e1>s. "	13	8	1995	"Pereira, B.A.S."	NA	"<c0>rvore dec<ed>dua ca. 20m alt. Tronco muito espesso e bojudo. Flores alvas "	"jabot"	"lat. NA"
"Cavanillesia arborea K.Schum."	NA	NA	"RB"	"292628"	""	"Brasil"	"Rio de Janeiro"	"Rio de Janeiro"	"Jardim Bot<e2>nico do Rio de Janeiro, canteiro 26 a, plaqueta sumida. Placa antiga 4297. Jardim Bot<e2>nico do Rio de Janeiro"	9	8	1991	"Fontella, J."	NA	"<c1>rvore de 20 m alt. flores em bot<e3>o."	"jabot"	"lat. NA"
"Cavanillesia arborea K.Schum."	NA	NA	"RB"	"613198"	"D.A. Folli"	"Brasil"	"Esp<ed>rito Santo"	"Linhares"	"Linhares a Colatina Beira Rio. "	13	8	2013	"Folli, D.A."	"7103"	"Terrestre; porte arb<f3>reo, 23,0m, fuste 16m, CAP 310cm, copa 10m; bot<e3>o marrom, flor branca; exsuda<e7><e3>o incolor"	"jabot"	"lat. NA"
"Cavanillesia arborea K.Schum."	NA	NA	"RBcarpo"	"7065"	""	"Brasil"	"Rio de Janeiro"	""	"Jardim Bot<e2>nico do Rio de Janeiro. "	NA	NA	NA	"Laborat<f3>rio de Sementes"	NA	""	"jabot"	"lat. NA"
"Cavanillesia arborea K.Schum."	NA	NA	"RB"	"473422"	"Gilmar E. Valente"	"Brasil"	"Minas Gerais"	"Vi<e7>osa"	"Campus da UFV; Horto. "	30	11	2007	"Gilmar E. Valente"	"1976"	"<c1>rvore com ca. 12 m de altura. Dia 22/08/2007 totalmente desprovida de folhas. Infloresc<ea>ncia concentrada no <e1>pice dos ramos com flores de c<e1>lice ferruginoso, corola branca, estilete branco e filetes brancos com base rosada. Em 15/10/2007, continua desprovida de folhas, com frutos penta-alados rosados e em 30/11/2007 coleta do ramo com folhas e est<ed>pulas. "	"jabot"	"lat. NA"
"Cavanillesia arborea K.Schum."	NA	NA	"RBcarpo"	"3950"	""	"Brasil"	"Esp<ed>rito Santo"	"Pendanga"	"Proc. Est. pdro Palacios. E.F.V.M. "	29	10	1949	"Vieira, J.N."	NA	""	"jabot"	"lat. NA"
"Cavanillesia arborea K.Schum."	NA	NA	"RB"	"312684"	"B.A. S. Pereira"	"Brasil"	"Tocantins"	"Taguatinga"	"Km 71 da estrada Campos Belos (GO)/Taguatinga (TO). "	13	9	1991	"Pereira, B.A.S."	NA	"<c1>rvore grossa, dec<ed>dua, aroma de ac<fa>leos, denominada barriguda por ter grande protuberancia no troco. frutos maduros de cor pardacenta. "	"jabot"	"lat. NA"
"Cavanillesia arborea K.Schum."	NA	NA	"RB"	"613200"	"D.A. Folli"	"Brasil"	"Minas Gerais"	"Itueta"	"Itueta <e1> Quantituba. "	7	11	2007	"Folli, D.A."	"5762"	"Terrestre; porte arb<f3>reo, 15,0m, fuste 9, CAP 128cm, copa 5m; fruto imaturo marrom, maduro marrom; exsuda<e7><e3>o incolor; descama<e7><e3>o ausente"	"jabot"	"lat. NA"
"Cavanillesia arborea K.Schum."	NA	NA	"RB"	"90037"	"J. G. kuhlmann"	"Brasil"	"Esp<ed>rito Santo"	"Nova Ven<e9>cia"	". "	16	11	1953	"Mattos f., A."	NA	"<c1>rvore pequena"	"jabot"	"lat. NA"
"Cavanillesia arborea (Willd.) K.Schum."	NA	NA	"RB"	"658151"	"J.R.Mattos e M. Nadruz"	"Brasil"	"Rio de Janeiro"	""	"Canteiro 39A, JBRJ
Tombo:7637
Jardim Bot<e2>nico do Rio de Janeiro "	NA	8	NA	"Mattos, J.R."	NA	"Ramos cil<ed>ndricos e glabros e tronco liso. Folhas alternas, sem presen<e7>a de est<ed>pula, de pec<ed>olo glabro, l<e2>mina foliar simples ovada com margem inteira. Flores com s<e9>palas amarronzadas, p<e9>talas cor de creme com anteras amareladas, fruto piloso rosado."	"jabot"	"lat. NA"
"Cavanillesia arborea"	0	0	"BCTW"	"19506"	""	"Brasil"	"Minas Gerais"	"Itacarambi"	""	NA	NA	NA	""	""	"enviado por Harri em 11/1994"	"splink"	"lat. 0"
"Cavanillesia arborea"	0	0	"BAH"	"3499"	"Scardino, Noblick, Paranhos, Guedes, C. Queiroz, Paganucci, Nascimento, N. Suely, Quaglia."	"Brasil"	"Bahia"	"Cachoeira"	"Esta<e7><e3>o da Mata (Bananeiras)."	NA	10	1980	"Go. Pedra do Cavalo"	"801"	"<c1>rvore de 15-20 m de altura e com tronco abaulado, flores e bot<f5>es vermelho-alaranjados."	"splink"	"lat. 0"
"Cavanillesia umbellata"	0	0	"HPL"	"4291"	"V.C. Souza"	"Brasil"	"BA"	"Ibotirama"	"Coletada na estrada para Barreiras."	18	8	1994	"H. Lorenzi"	"1601"	""	"splink"	"lat. 0"
"Cavanillesia umbellata"	0	0	"HPL"	"4292"	"V.C. Souza"	"Brasil"	"MG"	"Janu<e1>ria"	"Coletada na fazenda Santa cec<ed>lia de Sebasti<e3>o Mentans."	18	8	1994	"H. Lorenzi"	"1649"	""	"splink"	"lat. 0"
"Cavanillesia arborea"	0	0	"CEPEC"	"3067"	"J. A. Kallunki"	"Brasil"	"Bahia"	"JUSSAR<cd>"	""	24	7	1967	"R. S. Pinheiro"	"135"	"Ambiente: Mata Higrofila. Habito: <c1>rvore maior que 20m e menor que 50m"	"splink"	"lat. 0"
"Cavanillesia arborea"	0	0	"CEPEC"	"7099"	"T. S. dos Santos"	"Brasil"	"Bahia"	"ITAPEB<cd>"	"Faz. Ventania Estr. velha ao Rio Jequitinhonha."	17	8	1971	"T. S. dos Santos"	"1856"	"Ambiente: Mata Higrofila. Habito: <c1>rvore maior que 5m e menor 20m"	"splink"	"lat. 0"
"Cavanillesia arborea"	0	0	"CEPEC"	"81031"	"M. L. Guedes"	"Brasil"	"Bahia"	"feira de santana"	"prox. a cidade. Faz. Havana."	NA	NA	NA	"M. L. Guedes"	"6236"	"Ambiente: Area de transi<e7>ao c/ pastagem. Habito: <c1>rvore maior que 5m e menor 20m"	"splink"	"lat. 0"
"Cavanillesia arborea"	0	0	"HMC"	"1969"	"Santos R.M."	"Brasil"	"Minas Gerais"	"Janu<e1>ria"	"APA do Rio Pandeiros"	16	8	2009	"Menino, G.C.O.; Braga, L.L.; Coutinho,C.A.; Oliveira, M.H.; Silva, W.A.;"	""	"Ilha 5"	"splink"	"lat. 0"
"Cavanillesia arborea"	0	0	"HMC"	"3585"	""	"Brasil"	"Minas Gerais"	"januaria"	""	NA	NA	NA	"Estagiarios LEPV"	""	"pandeiros mata seca"	"splink"	"lat. 0"
"Cavanillesia arborea 10"	0	0	"HMC"	"569"	"Santos R.M."	"Brasil"	"Minas Gerais"	"Manga"	"Parque Estadual da Mata Seca"	10	2	2010	"Luz, G.R.; Coutinho, E.S.; Dantas, I.M.; Mota, G.S.; Mota, N.M.; Oliveira, M.H.; Rodrigues, P.L.; Silva, D.L.; Souza, M.L.; Souza, S.R.; Veloso, C.V.R.A.;"	"76"	""	"splink"	"lat. 0"
"Cavanillesia arborea"	0	0	"CEN"	"23207"	""	"Brasil"	"GO"	"CAMPOS BELOS"	"Estrada de terra Campos Belos - Divin<f3>polis de Goi<e1>s; a 20 km do entroncamento com a GO-118."	NA	NA	NA	"Taciana Barbosa Cavalcanti"	"713"	"8 m altura."	"splink"	"lat. 0"
"Cavanillesia arborea"	0	0	"VIC"	"31454"	"Valente, G.E."	"Brasil"	"Minas Gerais"	"Vi<e7>osa"	"Campus da UFV, Horto."	22	8	2007	"Valente, G.E.; Costa, C.A. da"	"1976"	"<c1>rvore com cerca de 12 metros de altura. Dia 22/08/2007 totalmente desprovida de folhas. Infloresc<ea>ncia concentrada no <e1>pice dos ramos com flores de c<e1>lice ferruginoso, corola branca, estilete branco com base rosada. Dia 15/10/2007, co"	"splink"	"lat. 0"
"Cavanillesia umbellata"	0	0	"MAC"	"29514"	"R.A.Costa"	"Brasil"	"Rio Grande do Norte"	"S<e3>o Jos<e9> de Mipib<fa>"	"Tropical Eco Resort."	22	10	2006	"R.A.Costa"	"34"	"<c1>rvore. Flores amarelas. Frutos verdes.HABITAT:Borda da Mata.;"	"splink"	"lat. 0"
"Cavanillesia arborea"	0	0	"NMNH_BOTANY_BR"	"2206906"	""	"Brazil"	"Goiás"	"Flores de Goias"	"Alvorada do Norte."	9	9	1994	"B. A. S. Pereira"	"2615"	""	"splink"	"lat. 0"
"Cavanillesia arborea"	0	0	"IPA"	"56095"	"Bocage, A."	"Brasil"	"Pernambuco"	"Recife"	"Dois Irm<e3>os, Pra<e7>a de Dois Irm<e3>os."	NA	3	1997	"Alves, J.L.H."	"IPA-56095"	""	"splink"	"lat. 0"
"Cavanillesia arborea"	0	0	"UB"	"21006"	"Pereira, BAS"	"Brasil"	"Goi<e1>s"	"Guarani de Goi<e1>s"	""	NA	NA	1996	"Pereira, BAS"	"3121"	"."	"splink"	"lat. 0"
"Cavanillesia arborea"	0	0	"CVRD"	"10544"	"Folli, D. A."	"BRASIL"	"MG"	"ITUETA"	""	7	11	2007	"Folli, D.A."	"5762"	"<ll>dwc_commonname:</ll> Barriguda"	"splink"	"lat. 0"
"Cavanillesia arborea"	0	0	"CVRD"	"14487"	"Folli, D. A"	"BRASIL"	"ES"	"LINHARES"	""	13	8	2013	"Folli, D.A."	"7103"	"Mata de aluvial na cabruca cacau. <ll>dwc_commonname:</ll> Barriguda"	"splink"	"lat. 0"
"Cavanillesia arborea"	0	0	"CVRD"	"9823"	"Folli, D. A."	"BRASIL"	"ES"	"LINHARES"	""	1	11	2006	"Folli, D.A."	"5395"	"Fazenda 3 Marias <ll>dwc_commonname:</ll> Barriguda"	"splink"	"lat. 0"
"Cavanillesia arborea"	0	0	"BHCB"	"58301"	""	"Brasil"	"Minas Gerais"	"Governador Valadares"	"Campo de Sementes"	28	10	1942	"Mendes Magalh<e3>es"	"2369"	""	"splink"	"lat. 0"
"Cavanillesia umbellata"	0	0	"HEPH"	"28035"	"Paiva, VF; Oliveira, MS"	"Brasil"	"Goi<e1>s"	"Nova Roma"	""	18	8	2011	"Jesus, FPR de"	"349"	"<c1>rvore; frutos jovens de cor verde; Fruto Imaturos verdes; Beira de estrada; Relevo Inclinado"	"splink"	"lat. 0"
"Cavanillesia umbellata"	0	0	"HEPH"	"28149"	"Paiva, VF; Oliveira, MS"	"Brasil"	"Goi<e1>s"	"Nova Roma"	""	24	10	2011	"Jesus, FPR de"	"351"	"Pl<e2>ntula de mais ou menos 20cm; Fruto Imaturos verdes;; Beira de estr.interna da Reserva(Borda de cerrado; Relevo Declive"	"splink"	"lat. 0"
"Cavanillesia arborea"	0	0	"SPF"	"185119"	"Valente, GE"	"Brasil"	"Minas Gerais"	"Vi<e7>osa"	""	22	8	2007	"Valente, GE"	"1976"	"coleta: 22/8/2007 (flor); 15/10/2007 (fruto) e 30/11/2007 (folha)."	"splink"	"lat. 0"
"Cavanillesia arborea"	0	0	"HUEFS"	"122632"	""	"Brasil"	"Bahia"	"Santa B<e1>rbara"	""	2	7	2007	"Santos, R.M."	"1695"	"Transi<e7><e3>o caatinga - Floresta"	"splink"	"lat. 0"
"Cavanillesia arborea"	0	0	"HUEFS"	"24143"	""	"Brasil"	"Goi<e1>s"	"Campos Belos"	""	16	8	1990	"Cavalcanti, T.B."	"713"	""	"splink"	"lat. 0"
"Cavanillesia umbellata"	0	0	"HUEFS"	"171827"	""	"Brasil"	"Bahia"	"Santana"	"localidade de Porto Novo, 8km da vila em dire<e7><e3>o a Santana."	15	3	2011	"Carvalho-Sobrinho, J.G.de"	"2987"	"Caatinga sobre afloramentos calc<e1>rios."	"splink"	"lat. 0"
"Cavanillesia arborea"	0	0	"UEC"	"70238"	"Pereira, B.A.S."	"Brazil"	"Goi<e1>s"	"Flores de Goi<e1>s"	"Testemunha de mata existente entre a cidade nova e a cidade velha. Mata dec<ed>dua situada no Km 32 da estrada de terra.. Alvorada do Norte."	9	9	1994	"Pereira, B.A.S."	"2615"	"<c1>rvore com cerca de 15 m de altura com tronco em forma de t<fa>nel. Casca muito espessa. Madeira rica em par<ea>nquima. Flores brancas."	"splink"	"lat. 0"
"Cavanillesia arborea"	0	0	"UEC"	"73105"	""	"Brazil"	"Bahia"	"Bom Jesus da Lapa"	"Estrada para Ibotirama. Caatinga."	19	8	1994	"<c1>rbocz, G.F."	"671"	"Frut<ed>fero. <c1>rvore de aproximadamente 25 - 30 m de altura. Fruto rosa. Estimativa de frutifica<e7><e3>o: agosto a outubro."	"splink"	"lat. 0"
"Cavanillesia arborea"	0	0	"UEC"	"79338"	""	"Brazil"	"Minas Gerais"	"Janu<e1>ria"	"Fazenda Santa Cec<ed>lia. Mata seca."	17	8	1994	"<c1>rbocz, G.F."	"659"	"Material coletado: vegetativo. Flor<ed>fero. <c1>rvore de aproximadamente 25 - 30 m de altura, 1,0 m DAP. Tronco com desenhos em relevo. Sem folhas, apenas flores. Flores rosas. Estimativa de florescimento: julho e agosto."	"splink"	"lat. 0"
"Cavanillesia arborea (Willd.) K.Schum."	0	-15.210278	"BHCB"	"64840"	NA	"Brazil"	"Minas Gerais"	NA	"Furados."	19	10	2001	"Lombardi, JA; Dulith, JHA & Semir, J"	"4448"	"áreas mais elevadas de carrasco em volta do lageado, terreno argiloso. Árvore, ca. 25 m, sem folhas, frutos caidos, plântulas emergindo, cotilédones carnosos; DESC: áreas mais elevadas de carrasco em volta do lageado, terreno argiloso. Árvore, ca. 25 m,"	"gbif"	"long. 0"
"Cavanillesia arborea (Willd.) K.Schum."	0	-15.210278	"BHCB"	"64840"	NA	"Brazil"	"Minas Gerais"	NA	"Furados."	19	10	2001	"Lombardi, JA; Dulith, JHA & Semir, J"	"4448"	"áreas mais elevadas de carrasco em volta do lageado, terreno argiloso. Árvore, ca. 25 m, sem folhas, frutos caidos, plântulas emergindo, cotilédones carnosos; DESC: áreas mais elevadas de carrasco em volta do lageado, terreno argiloso. Árvore, ca. 25 m,"	"gbif"	"long. 0"
"Cavanillesia umbellata Ruiz & Pav."	-74.306111	-11.1425	"E"	"E00509174"	NA	"Peru"	"Junín"	NA	"Road Puerto Ocopa - Atalaya"	25	9	2007	"Pennington, R.Toby"	"1927"	NA	"gbif"	"fora polígono limite"
"Cavanillesia umbellata Ruiz & Pav."	-68.527778	-14.235	"MO"	"2879912"	"A. Fuentes (LPB)"	"Bolivia, Plurinational State of"	"La Paz"	"Franz Tamayo"	"Área Natural de Manejo Integrado Madidi, Azariamas, frente al arroyo Jaukantista.  Terraza antigua. Plantas NO alcoholizadas."	29	9	2005	"L. Cayola|C. Campos|A.S. Poma C.|Remberto Jove|H. Urbano"	"Cayola Pérez 1818"	NA	"gbif"	"fora polígono limite"
"Cavanillesia umbellata Ruiz & Pav."	-68.51111	-14.21277	"MO"	"2881035"	"A. Fuentes (LPB)"	"Bolivia, Plurinational State of"	"La Paz"	"Franz Tamayo"	"Parque Nacional Madidi, Azariamas, arroyo San Roque. Bosque de yungas subandino pluviestacional con Pentaplaris davidsmithii y Erythrochiton fallax. Fondo de valle. Parcela temporal de muestreo (0,1 ha). Plantas NO alcoholizadas."	11	10	2005	"L. Cayola|C. Campos|A.S. Poma C.|Remberto Jove|H. Urbano"	"Cayola Pérez 2004"	NA	"gbif"	"fora polígono limite"
"Cavanillesia umbellata Ruiz & Pav."	-67.78861	-14.98777	"MO"	"1749941"	"I. Loza (LPB)"	"Bolivia, Plurinational State of"	"La Paz"	"Franz Tamayo"	"Parque Nacional Madidi, río Quendeque, detrás del campamento ""Retamas"". Bosque amazónico pluviestacional húmedo, de piedemonte subandino, bien drenado, con Pentaplaris davidsmithii, Arecaceae spp, Annonaceae spp, Burseraceae spp, Moraceae spp. En terraza antigua. Parcela Temporal de Muestreo (0.1 ha) 4."	28	1	2002	"D. De la Quintana"	"De la Quintana 174"	NA	"gbif"	"fora polígono limite"
"Cavanillesia umbellata Ruiz & Pav."	-67.79333	-14.97666	"MO"	"1764448"	"V. Cardona, Rev. W. Alverson (F)"	"Bolivia, Plurinational State of"	"La Paz"	"Franz Tamayo"	"Parque Madidi, orilla izquierda Río Quendeque, una hora del campamento Retamas. bosque bajo, con muchas palmeras, bejucos, en el sotobosque muchas marantaceas y Asplundia"	25	1	2002	"Renate Seidel|et al."	"Seidel 8450"	NA	"gbif"	"fora polígono limite"
"Cavanillesia umbellata Ruiz & Pav."	-67.956111	-14.367222	"MO"	"1854564"	"I. Loza (LPB)"	"Bolivia, Plurinational State of"	"La Paz"	"Abel Iturralde"	"Área Natural de Manejo Integrado Madidi. Arroyo Rudidi, sobre el Río Tuichi."	14	10	2002	"Alejandro Araujo M.|Héctor Cabrera|M.H. Calzadilla|Fabiola Torrico|Leopoldo Lucia|L. Quetehuari|Justino Navi|Marcelino Villanueva"	"Araujo Murakami 374"	NA	"gbif"	"fora polígono limite"
"Cavanillesia umbellata Ruiz & Pav."	-70.26083	-3.81692	"COAH"	"33296"	"Cárdenas, D."	"Colombia"	"Amazonas"	"Leticia"	"PNN Amacayacu, sector de Mata-Matá."	20	8	1998	"Arias-G., J.C."	"559"	"Ejemplar botánico"	"gbif"	"fora polígono limite"
"Cavanillesia umbellata Ruiz & Pav."	-70.54944	-3.76115	"COAH"	"33513"	"Cárdenas, D."	"Colombia"	"Amazonas"	"Puerto Nariño"	"San Pedro de Tipisca, río Loretoyacú (afluente del río Amazonas), terraza baja, moderadamente disectadas"	30	8	1996	"Posada, A."	"2548"	"Ejemplar botánico"	"gbif"	"fora polígono limite"
"Cavanillesia umbellata Ruiz & Pav."	-73.5	-4.166667	"MO"	"188621"	NA	"Peru"	"Loreto"	"Maynas"	"Distrito Iquitos. Allpahuayo, estación IIAP. Bosque primario."	14	10	1993	"Rodolfo Vásquez"	"Vásquez Martínez 18338"	NA	"gbif"	"fora polígono limite"
"Cavanillesia umbellata Ruiz & Pav."	-68	-15.5	"Botany"	NA	"R. Seidel"	"Bolivia, Plurinational State of"	"La Paz"	NA	NA	26	2	1992	"R. Seidel"	"5706"	NA	"gbif"	"fora polígono limite"
"Cavanillesia umbellata Ruiz & Pav."	-70.25	-3.7	"FMB"	"FMB-053862"	"Fernández-Alonso, José"	"Colombia"	"Amazonas"	"Leticia"	"Alrededores de la quebrada Agua Pudre"	24	3	1992	"Rudas, Agustín; Giraldo, D.; Tuberguias, D.; Uribe, F."	"3613"	NA	"gbif"	"fora polígono limite"
"Cavanillesia umbellata Ruiz & Pav."	-70.25	-3.733333	"HUIS"	"11111"	"A. Rudas"	"Colombia"	"Amazonas"	"Leticia"	"Parque Nacional Natural Amacayacu, quebrada Agua Pudre"	24	3	1992	"Rudas A."	"3613"	"Árbol # 1146 de 10 m. x 24.3 cm"	"gbif"	"fora polígono limite"
"Cavanillesia umbellata Ruiz & Pav."	-70.25	-3.7	"MO"	"189845"	"A. Rudas (COL)"	"Colombia"	"Amazonas"	NA	"Municipio de Leticia. Parque Nacional Natural Amacayacu. Alrededores de la quebrada Agua Pudre en bosque de terra firme. Parcela E, No. 17."	24	3	1992	"Agustin Rudas L.|Diego Giraldo-Cañas|et al."	"Rudas Lleras 3613"	NA	"gbif"	"fora polígono limite"
"Cavanillesia umbellata Ruiz & Pav."	-69.05	-12.48333	"MO"	"189926"	"R. Vasquez (MO)"	"Peru"	"Madre de Dios"	"Tambopata"	"Las Piedras. Cusco Amazónico. Inventario Permanente. Plantas colectadas en trocha F y I."	29	10	1991	"Martín E. Timaná|Nestor Jaramillo"	"Timaná 2868"	NA	"gbif"	"fora polígono limite"
"Cavanillesia umbellata Ruiz & Pav."	-69.05	-12.48333	"MO"	"189932"	"R. Vasquez (MO)"	"Peru"	"Madre de Dios"	"Tambopata"	"Las Piedras. Cusco Amazónico. Inventario Permanente. Plantas colectadas en trocha F y I."	29	10	1991	"Martín E. Timaná|Nestor Jaramillo"	"Timaná 2871"	NA	"gbif"	"fora polígono limite"
"Cavanillesia umbellata Ruiz & Pav."	-69.05	-12.58333	"MO"	"190183"	"M. Timana (MO)"	"Peru"	"Madre de Dios"	"Tambopata"	"Cusco Amazónico Lodge. TREEPLOTS"	16	4	1990	"Percy Núñez V."	"Núñez Vargas 12121"	NA	"gbif"	"fora polígono limite"
"Cavanillesia umbellata Ruiz & Pav."	-65.5	-14	"Botany"	NA	"R. B. Foster : Field Museum of Natural History"	"Bolivia, Plurinational State of"	"Beni"	NA	NA	28	5	1988	"S. G. Beck"	"16640"	NA	"gbif"	"fora polígono limite"
"Cavanillesia umbellata Ruiz & Pav."	-72.933	-3.241	"MO"	"190042"	"R. Vasquez (MO)"	"Peru"	"Loreto"	"Maynas"	"Yanamono, Explorama Tourist Camp, halfway between Indiana and mouth of Río Napo, non- flooded forest on rather fertile soil."	30	7	1988	"H. van der Werff|et al."	"van der Werff 9853"	NA	"gbif"	"fora polígono limite"
"Cavanillesia umbellata Ruiz & Pav."	-73.33333	-4.58333	"MO"	"190325"	"J.L. Fernandez A. (COL)"	"Peru"	"Loreto"	"Maynas"	"Dtto. Iquitos, Km 42 Carretera Iquitos-Nauta. Bosque primario."	18	8	1987	"Rodolfo Vásquez|Nestor Jaramillo"	"Vásquez Martínez 9378"	NA	"gbif"	"fora polígono limite"
"Cavanillesia umbellata Ruiz & Pav."	-70.25	-12	"Botany"	NA	NA	"Peru"	"Madre de Dios"	NA	NA	29	7	1984	"R. B. Foster"	"9716"	NA	"gbif"	"fora polígono limite"
"Cavanillesia umbellata Ruiz & Pav."	-75.01666	-8.75	"MO"	"189022"	"A. Gentry"	"Peru"	"Huánuco"	NA	"Km 11 to Km 12. Carretera Marginal (in construction) S of Pucallpa-  Tingo Maria road at Bosque von Humboldt."	31	5	1983	"Alwyn H. Gentry|Nestor Jaramillo"	"Gentry 41362"	NA	"gbif"	"fora polígono limite"
"Cavanillesia umbellata Ruiz & Pav."	-75.8333	-9.5	"Botany"	NA	"A. H. Gentry"	"Peru"	"Hu<U+FFFD>nuco"	NA	NA	31	5	1983	"A. H. Gentry"	"41362"	NA	"gbif"	"fora polígono limite"
"Cavanillesia umbellata Ruiz & Pav."	-75.033333	-9.683333	"MO"	"1483389"	"A. Gentry"	"Peru"	"Ucayali"	NA	"Carretera Marginal, 22 km S of Km 86."	11	2	1981	"Alwyn H. Gentry|Sue Libenson|Kenneth Young|Mark E. Olson"	"Gentry 31213"	NA	"gbif"	"fora polígono limite"
"Cavanillesia umbellata Ruiz & Pav."	-76.46666	-2.8	"MO"	"188341"	"A. Gentry"	"Peru"	"Loreto"	"Alto Amazonas"	"Andoas, Río Pastaza near Ecuador border. Mature and disturbed forest on lateritic soil."	14	8	1980	"Alwyn H. Gentry|Rodolfo Vásquez|Nestor Jaramillo"	"Gentry 29688"	NA	"gbif"	"fora polígono limite"
"Cavanillesia umbellata Ruiz & Pav."	-70.25	-12	"Botany"	NA	NA	"Peru"	"Madre de Dios"	NA	NA	30	9	1980	"R. B. Foster"	"5432"	NA	"gbif"	"fora polígono limite"
"Cavanillesia umbellata Ruiz & Pav."	-70.25	-12	"Botany"	NA	NA	"Peru"	"Madre de Dios"	NA	NA	30	9	1980	"R. B. Foster"	"5432"	NA	"gbif"	"fora polígono limite"
"Cavanillesia arborea (Willd.) K.Schum."	-30.083333	-12.533333	"HUEFS"	"832"	NA	"Brazil"	"Bahia"	NA	NA	NA	11	1980	"Grupo Pedra do Cavalo"	"925"	NA	"gbif"	"fora polígono limite"
"Cavanillesia umbellata Ruiz & Pav."	-71.366667	-11.9	"MO"	"1452491"	"A. Gentry"	"Peru"	"Madre de Dios"	NA	"Trails 4, 5 and 9, Cashu Cocha Camp, Manu National Park."	21	10	1979	"Alwyn H. Gentry|James Aronson|Ramón Ramírez Catauga"	"Gentry 27075"	NA	"gbif"	"fora polígono limite"
"Cavanillesia umbellata Ruiz & Pav."	-78.63333	-4.5	"MO"	"910332"	"A. Gentry (MO)"	"Peru"	"Amazonas"	"Condorcanqui"	"Río Cenepa.  Vicinity of Huampami, ca. 5 km. east of Chávez Valdívia. Chigkan entsa.  Al lado de su casa de Unísum.  En bosque secundario."	14	8	1978	"Ernesto Ancuash Atsut"	"Ancuash Atsut 1489"	NA	"gbif"	"fora polígono limite"
"Cavanillesia arborea (Willd.) K.Schum."	-74.14	-9.1839	"Botany"	NA	NA	"Peru"	NA	NA	NA	NA	NA	1778	"H. Ru<U+FFFD>z L. & J. A. Pav<U+FFFD>n"	NA	NA	"gbif"	"fora polígono limite"
"Cavanillesia umbellata Ruiz & Pav."	-74.375627	-9.163761	"BOT"	"BM000645684"	NA	"Peru"	NA	NA	NA	NA	NA	NA	"José Antonio Pavón; b.1754; d.1844; Pav."	"s.n."	NA	"gbif"	"fora polígono limite"
"Cavanillesia arborea (Willd.) K.Schum."	-30.083333	-12.533333	"HUEFS"	"832"	NA	"Brazil"	"Bahia"	NA	NA	NA	11	1980	"Grupo Pedra do Cavalo"	"925"	NA	"gbif"	"fora polígono limite"
"Cavanillesia arborea (Willd.) K.Schum."	-74.14	-9.1839	"Botany"	NA	NA	"Peru"	NA	NA	NA	NA	NA	1778	"H. Ru<U+FFFD>z L. & J. A. Pav<U+FFFD>n"	NA	NA	"gbif"	"fora polígono limite"
