scientificname	longitude	latitude	collectioncode	catalognumber	identifiedby	country	stateprovince	county	locality	daycollected	monthcollected	yearcollected	collector	collectornumber	notes	source
Aralia warmingiana 	-40.522778	-13.316111	HUEFS	178098	NA	Brazil	BA	NA	Estrada para MarcionÃ­lio Souza, ca. 12,6 km da cidade.	3	11	2011	Melo, E.	10559	Caatinga, beira da estrada.	gbif
Aralia warmingiana 	-40.5	-12.419444	HUEFS	141901	NA	Brazil	BA	NA	ARIE Serra do OrobÃ³. Fazenda LeÃ£o dos Brejos.	16	8	2008	Queiroz, L.P.de	13685	Floresta estacional semi-decidual.	gbif
Aralia warmingiana 	-42.412222	-13.297222	ALCB	80257	NA	Brazil	BA	NA	Chapada Diamantina, Chapada Diamantina	28	4	2007	ConceiÃ§Ã£o, AA; Harley, RM; Santos, RM; Rocha, DSB	1888	NA	gbif
Aralia warmingiana 	-42.245556	-13.297222	HUEFS	119255	P.Fiaschi	Brazil	BA	NA	Caminho Catuarama para Mateus.	28	4	2007	ConceiÃ§Ã£o, A.A.	1888	Caatinga.	gbif
Aralia warmingiana 	-42.178611	-12.433333	HUEFS	118163	NA	Brazil	BA	NA	Ca, 51 Km W de Seabra na BR 242.	9	4	2007	Queiroz, L.P.de	12666	Caatinga.	gbif
Aralia warmingiana 	-44.32	-13.586111	HUEFS	118237	NA	Brazil	BA	NA	Ca, 5 Km S em estrada de terra que cruza pequeno ramal que sai a 5.1 km E de Ponto d'Ã¡gua, a 24,4 Km S de SÃ£o FÃ©lix do Coribe na estrada para Coribe.	10	4	2007	Queiroz, L.P.de	12740	Floresta estacional.	gbif
Aralia warmingiana 	-39.1839	-12.1617	NA	1144310	NA	Brazil	BA	Anguera	Fazenda Retiro, ca. 18 km de Feira de Santana na Estrada do FeijÃ£o sentido IpirÃ¡.	22	5	2007	D. B. O. S. Cardoso	1962	NA	gbif
Aralia warmingiana 	-39.183889	-12.161667	HUEFS	120049	NA	Brazil	BA	NA	Fazenda Retiro, ca. 18 Km de Feira de Santana na Estrada do FeijÃ£o sentido IpirÃ¡.	22	5	2007	Cardoso, D.	1962	Floresta estacional semidecÃ­dua com dossel a ca. 20 m alt. e afloramentos rochosos no topo da serra.	gbif
Aralia warmingiana 	-41.501667	-12.327222	HUEFS	122759	NA	Brazil	BA	NA	NA	12	7	2007	Santos, R.M.	1822	Caatinga.	gbif
Aralia warmingiana 	-44.968889	-12.376944	HUEFS	122708	R.M.Santos	Brazil	BA	NA	BR 135.	2	7	2007	Santos, R.M.	1771	Caatinga arbÃ³rea e afloramento de calcÃ¡rio.	gbif
Aralia warmingiana 	-39.1839	-12.1617	NYBG_BR	1144310		Brasil	BA	Anguera	Fazenda Retiro, ca. 18 km de Feira de Santana na Estrada do Feijão sentido Ipirá.	22	5	2007	D. B. O. S. Cardoso	1962	<a href=\http://sweetgum.nybg.org/science/vh/specimen_details.php?irn=1287245\ target=\other\ class=\eLink\> <mi>dwc_moreinfo</mi></a>	splink
Aralia warmingiana 	-44.32	-13.586111	HUEFS	118237		Brasil	BA	Coribe	Ca, 5 Km S em estrada de terra que cruza pequeno ramal que sai a 5.1 km E de Ponto d'água, a 24,4 Km S de São Félix do Coribe na estrada para Coribe.	10	4	2007	Queiroz, L.P.de	12740	Floresta estacional.	splink
Aralia warmingiana 	-42.245556	-13.297222	HUEFS	119255	P.Fiaschi	Brasil	BA	Paramirim	Caminho Catuarama para Mateus.	28	4	2007	Conceição, A.A.	1888	Caatinga.	splink
Aralia warmingiana 	-39.183889	-12.161667	HUEFS	120049		Brasil	BA	Anguera	Fazenda Retiro, ca. 18 Km de Feira de Santana na Estrada do Feijão sentido Ipirá.	22	5	2007	Cardoso, D.	1962	Floresta estacional semidecídua com dossel a ca. 20 m alt. e afloramentos rochosos no topo da serra.	splink
Aralia warmingiana 	-44.968889	-12.376944	HUEFS	122708	R.M.Santos	Brasil	BA	São Desidério	BR 135.	2	7	2007	Santos, R.M.	1771	Caatinga arbórea e afloramento de calcário.	splink
Aralia warmingiana 	-41.501667	-12.327222	HUEFS	122759		Brasil	BA	Iraquara		12	7	2007	Santos, R.M.	1822	Caatinga.	splink
Aralia warmingiana 	-40.5	-12.419444	HUEFS	141901		Brasil	BA	Itaberaba	ARIE Serra do Orobó. Fazenda Leão dos Brejos.	16	8	2008	Queiroz, L.P.de	13685	Floresta estacional semi-decidual.	splink
Aralia warmingiana 	-40.522778	-13.316111	HUEFS	178098		Brasil	BA	Maracás	Estrada para Marcionílio Souza, ca. 12,6 km da cidade.	3	11	2011	Melo, E.	10559	Caatinga, beira da estrada.	splink
Aralia warmingiana 	-39.8536	-10.6917	IPA	50582	Barroso, G.M.	Brasil	BA	Itiuba	Fazenda Experimental da EPABA	25	5	1983	Pinto, G.C.P.; Bautista, H.P.; Bautista, H.P.	91	Árvore de aproximadamente 6m de altura, fuste retilíneo com casca , lembrando o pau-d'arco roxo; madeira mole.; Vegetação: Floresta Estacional Decidual.	splink.mun
Aralia warmingiana 	-41.1561	-11.55	HUEFS	137414		Brasil	BA	Morro do Chapéu	Buraco da Duda ou Buracão.	19	4	2008	Melo, E.	5678	Caatinga. Afloramento de calcário.	splink.mun
Aralia warmingiana 	-39.0064722222222	-7.71033333333333	HVASF	21235	D.G. Oliveira	Brasil	CE	Jati	Reservatório Jati	27	8	2013	D.G. Oliveira	1029	Árvore ca. de 7m alt.. Caule com ritidoma espesso, rugoso, fissuras longitudinais. Ramos jovens com cicatrizes foliares. Folhas bipinadas, espiraladas. Flores com tonalidade creme-alva. Frutos em desenvolvimento.	splink
Aralia warmingiana 	-39.0064444444444	-7.71033333333333	HVASF	21598	E. Melo	Brasil	CE	Jati	Reservatório Jati, coletado na cota mais baixa um vale	22	11	2013	D.G. Oliveira	1059	Árvore ca. de 6,5m alt.. Caule com ritidoma espesso, rugoso, fissuras longitudinais. Ramos jovens com cicatrizes foliares. Folhas bipinadas, espiraladas. Flores com tonalidade creme-alva. Frutos coloração creme em desenvolvimento.	splink
Aralia warmingiana 	-39.006472	-7.710333	HVASFW	413	D.G. Oliveira	Brasil	CE	Jati	Reservatório Jati	27	8	2013	D.G. Oliveira	1029	Árvore ca. de 7m alt.. Caule com ritidoma espesso, rugoso, fissuras longitudinais. Ramos jovens com cicatrizes foliares. Folhas bipinadas, espiraladas. Flores com tonalidade creme-alva. Frutos em desenvolvimento.	splink
Aralia warmingiana 	-39.006444	-7.710333	HVASFW	427	E. Melo	Brasil	CE	Jati	Reservatório Jati, coletado na cota mais baixa um vale	22	11	2013	D.G. Oliveira	1059	Árvore ca. de 6,5m alt.. Caule com ritidoma espesso, rugoso, fissuras longitudinais. Ramos jovens com cicatrizes foliares. Folhas bipinadas, espiraladas. Flores com tonalidade creme-alva. Frutos coloração creme em desenvolvimento.	splink
Aralia warmingiana 	-39.006472	-7.710333	HVASF	21235	D.G. Oliveira	Brazil	CE	NA	ReservatÃ³rio Jati	27	8	2013	D.G. Oliveira	1029	Ãrvore ca. de 7m alt.. Caule com ritidoma espesso, rugoso, fissuras longitudinais. Ramos jovens com cicatrizes foliares. Folhas bipinadas, espiraladas. Flores com tonalidade creme-alva. Frutos em desenvolvimento.	gbif
Aralia warmingiana 	-39.006444	-7.710333	HVASF	21598	E. Melo	Brazil	CE	NA	ReservatÃ³rio Jati, coletado na cota mais baixa um vale	22	11	2013	D.G. Oliveira	1059	Ãrvore ca. de 6,5m alt.. Caule com ritidoma espesso, rugoso, fissuras longitudinais. Ramos jovens com cicatrizes foliares. Folhas bipinadas, espiraladas. Flores com tonalidade creme-alva. Frutos coloraÃ§Ã£o creme em desenvolvimento.	gbif
Aralia warmingiana 	-40.304167	-20.276667	VIES	758	NA	Brazil	ES	NA	Campus da UFES - Goiabeiras, Floresta de Tabuleiro.	6	5	1985	Vinha, P.C.	s.n.	Ãrvore com 5 m de altura. Flor alva.	gbif
Aralia warmingiana 	-40.304167	-20.276667	VIES	758		Brasil	ES	Vitória	Campus da UFES - Goiabeiras, Floresta de Tabuleiro.	6	5	1985	Vinha, P.C.	s.n.	Árvore com 5 m de altura. Flor alva.	splink
Aralia warmingiana 	-44.0825	-18.644444	HDJF	825	Machado; E.LM.	Brazil	MG	NA	Presidente Juscelino, Minas Gerais, Zona rural	NA	9	2012	Oliveira, A.C.C.; Machado, E.L.M.	NA	NA	gbif
Aralia warmingiana 	-44.0825	-18.644444	HDJF	826	Machado; E.LM.	Brazil	MG	NA	Presidente Juscelino, Minas Gerais, Zona rural	NA	9	2012	Oliveira, A.C.C.; Machado, E.L.M.	NA	NA	gbif
Aralia warmingiana 	-42.826944	-15.305833	SPF	173305	Pirani, JR	Brazil	MG	NA	SÃ£o JoÃ£o do Bonito.	7	4	2004	Pirani, JR	5468	NA	gbif
Aralia warmingiana 	-44.183333	-18.283333	SPF	111341	Pirani, JR	Brazil	MG	NA	NA	3	4	1996	Pirani, JR	3734	NA	gbif
Aralia warmingiana 	-46.993611	-18.944722	SPFW	554	P. Fiaschi 2012	Brazil	MG	NA	Serra do Salitre	1	1	1994	Ceccantini, G.C.T.	315	NA	gbif
Aralia warmingiana 	-47	-16	E	E00247206	NA	Brazil	MG	NA	Sagarana, Projeto Integrado de Coloizacao (INCRA), NW Minas Gerais.	15	9	1985	Ratter, J.A.; Wagner Borges, J.; Rocha, Machado & Rocha, Mardocheu	R 5047	NA	gbif
Aralia warmingiana 	-47	-16	NA	958278	J. Wen	Brazil	MG	NA	Sagarana, Projeto Integrado de ColonizaÃ§ao (INCRA), NW Minas Gerais	15	9	1985	J. A. Ratter	R5047	NA	gbif
Aralia warmingiana 	-47	-16	UB	115244	NA	Brazil	MG	NA	Projeto Integrado de ColonizaÃ§Ã£o (INCRA), NW Minas Gerais	15	9	1985	Ratter, JA	5047	Wood very weak and useless, not good for firewood or charcoal; Tree 14.0 m tall, 40.0 cm dbh. Bark grey with a longitudinally fissured pattern. Branches very weak and with the rather clumsy pachycaul pattern of Araliaceous trees. Opening new foliage	gbif
Aralia warmingiana 	-47	-16	NA	958279	J. Wen	Brazil	MG	NA	Sagarana, Projeto Integrado de ColonizaÃ§ao (INCRA), NW Minas Gerais	15	9	1985	J. A. Ratter	R5047	NA	gbif
Aralia warmingiana 	-46.993611	-18.944722	SPFW	554	P. Fiaschi 2012	Brasil	MG	Patrocínio	Serra do Salitre	1	1	1994	Ceccantini, G.C.T.	315		splink
Aralia warmingiana 	-44.0825	-18.644444	HDJF	825	Machado; E.LM.	Brasil	MG	Presidente Juscelino	Presidente Juscelino, Minas Gerais, Zona rural	NA	9	2012	Oliveira, A.C.C.; Machado, E.L.M.			splink
Aralia warmingiana 	-44.0825	-18.644444	HDJF	826	Machado; E.LM.	Brasil	MG	Presidente Juscelino	Presidente Juscelino, Minas Gerais, Zona rural	NA	9	2012	Oliveira, A.C.C.; Machado, E.L.M.			splink
Aralia warmingiana 	-47	-16	NYBG_BR	958278	J. Wen	Brasil	MG		Sagarana, Projeto Integrado de Colonizaçao (INCRA), NW Minas Gerais	15	9	1985	J. A. Ratter	R5047	<a href=\http://sweetgum.nybg.org/science/vh/specimen_details.php?irn=1022190\ target=\other\ class=\eLink\> <mi>dwc_moreinfo</mi></a>	splink
Aralia warmingiana 	-47	-16	NYBG_BR	958279	J. Wen	Brasil	MG		Sagarana, Projeto Integrado de Colonizaçao (INCRA), NW Minas Gerais	15	9	1985	J. A. Ratter	R5047	<a href=\http://sweetgum.nybg.org/science/vh/specimen_details.php?irn=1022192\ target=\other\ class=\eLink\> <mi>dwc_moreinfo</mi></a>	splink
Aralia warmingiana 	-44.183333	-18.283333	SPF	111341	Pirani, JR	Brasil	MG	Santo Hipólito		3	4	1996	Pirani, JR	3734		splink
Aralia warmingiana 	-43.8897	-19.6272	SPF	152879	Frodin, DG	Brasil	MG	Lagoa Santa	Área de Proteção Ambiental Carste de Lagoa Santa	3	3	1996	Brina, AE	s.n.		splink.mun
Aralia warmingiana 	-43.9233	-19.6919	SPF	71068	Anônimo	Brasil	MG	Vespasiano	Região metropolitana de Belo Horizonte. Afloramento metropolitano de Belo Horizonte. Adjacente à Lavra da Cia. de cimento Portland Itaú.	NA	12	1990	Rollo, MAL	23		splink.mun
Aralia warmingiana 	-46.9925	-18.9439	SPF	89013	Anônimo	Brasil	MG	Patrocínio	Serra do Salitre, Mata ciliar próximo à margem do Rio Salitre.	24	3	1994	Ceccantini, G	315		splink.mun
Aralia warmingiana 	-54205	-26.91638	MO	2409440	Tressens, S. G., //	Argentina	Misiones	GuaranÃ­	Predio GuaranÃ­. Sendero CIFOR en selva	27	4	1999	Sara G. Tressens|Lidia I. Ferraro|H.A. Keller|Victor MaruÃ±ak|V. Revilla	Tressens 6110	NA	gbif
Aralia warmingiana 	-56.696111	-21.283583	COR	11572	M. Mendoza, 21/01/2016	Brasil	MS	Porto Murtinho	Fazenda Harmonia - Rio Perdido	8	9	2005	Damasceno Jr., G.A.;Maria,V.R.; Batilani,J.; Pott,A; Velasques,J.	3863		splink
Aralia warmingiana 	-55	-25.5	Geneva Herbarium â€“ General Collection (G)	G-G-27632/1	NA	Paraguay		NA	Departamento Alto ParanÃ¡ -/Departamento del Alto ParanÃ¡	1	2	1985	Stutz de Ortega, L.	NA	NA	gbif
Aralia warmingiana 	-55	-24.33333	Geneva Herbarium â€“ General Collection (G)	G-G-109166/20	NA	Paraguay		NA	Departamento CanindeyÃº/Departamento de CanindeyÃº	30	10	1978	Bernardi, L.	NA	NA	gbif
Aralia warmingiana 	-36.9494861111111	-8.24941111111111	HVASF	22183	V.M. Cotarelli	Brasil	PR	São João do Tigre	Povoado Juazeiro	3	2	2014	A.C.P. Oliveira	3264	Árvore ca. de 5m alt.. Flores e botões florais verde-claros.	splink
Aralia warmingiana 	-37.1129722222222	-7.84683333333333	HVASF	2687	P. Fiaschi	Brasil	PR	Monteiro	Sítio Olhinho Dágua, Serrote do Peru	18	12	2008	J. Antunes	65	Árvore, ca. 5m alt. Caule acinzentado. Flores passadas, receptáculo esverdeado, gineceu alvo. Frutos esverdeados.	splink
Aralia warmingiana 	-36.949486	-8.249411	HVASF	22183	V.M. Cotarelli	Brazil	PB	NA	Povoado Juazeiro	3	2	2014	A.C.P. Oliveira	3264	Ãrvore ca. de 5m alt.. Flores e botÃµes florais verde-claros.	gbif
Aralia warmingiana 	-37.112972	-7.846833	HVASF	2687	P. Fiaschi	Brazil	PB	NA	SÃ­tio Olhinho DÃ¡gua, Serrote do Peru	18	12	2008	J. Antunes	65	Ãrvore, ca. 5m alt. Caule acinzentado. Flores passadas, receptÃ¡culo esverdeado, gineceu alvo. Frutos esverdeados.	gbif
Aralia warmingiana 	-38.508611	-7.562222	ASE	1210	Campos, DA	Brazil	PB	NA	estrada p/ Bonito de Santa FÃ©	30	11	1971	Andrade-Lima, D de	1101	Ãrvore. 7-8m. . inflorescÃªncia axilar nÃ£o exatamente terminal.; Caatinga; HABITAT: Caatinga; DESC: Ãrvore. 7-8m. . inflorescÃªncia axilar nÃ£o exatamente terminal.	gbif
Aralia warmingiana 	-51.0283	-22.8506	ESA	ESA096201	Lovato, M.C.	Brasil	PR	Primeiro de Maio		3	4	2001	Pavão, O.C. et al.			splink.mun
Aralia warmingiana 	-51.6597	-25.6956	MBM	157192	Sobral, M	Brazil	PR	Pinhão	Reserva Rio dos Touros	9	11	1991	Tramujas, AP	549		splink.mun
Aralia warmingiana 	-51.1628	-23.3103	HUFU	23122	Soares-Silva, L.H.	Brasil	PR	Londrina	Floresta Godoy-Próximo parc. 5 e14 da porção norte.	18	3	1994	Silva, F.C. e	1682	DESC:Árvore, ca. 30 m. Botão floral e flores creme.;	splink.mun
Aralia warmingiana 	-51.1628	-23.3103	BOTU	27175	Soares e Silva, L.H.	Brasil	PR	Londrina		18	3	1994	Chagas e Silva, F.	11379	Árvore, 30 metros de altura; botão floral e flores creme; suber lenhoso, corte creme.	splink.mun
Aralia warmingiana 	-51.1628	-23.3103	FUEL	10239		Brasil	PR	Londrina	Parque Estadual Mata dos Godoy	17	3	1989	Soares-Silva, L.H.; Francisco das Chagas e Silva	196	; DESC: Arvore, 25,0m de altura, botoes florais e flores cremes.	splink.mun
Aralia warmingiana 	-51.1628	-23.3103	FUEL	10742		Brasil	PR	Londrina	Parque Estadual Mata dos Godoy	3	3	1993	Soares-Silva, L.H.; Francisco das Chagas e Silva	307	; DESC: Arvore, 30,0m de alt., botoes florais e flores amareladas, odorifera, rara na area	splink.mun
Aralia warmingiana 	-51.1628	-23.3103	FUEL	11379	Frondin, D.	Brasil	PR	Londrina	Floresta dos Godoy, Proximo parc.5 e 14 da porcao norte	18	3	1994	Francisco das Chagas e Silva; Soares-Silva, L.H.	1682	; DESC: Arvore, 30,0m de alt; botao floral e flores creme; suber lenhoso, corte creme.	splink.mun
Aralia warmingiana 	-51.0364	-23.0586	FUEL	30339	S.F. de Andrade	Brasil	PR	Sertanópolis	Fazenda Fartura	28	9	2000	Francisco, E.M.	s.n.	; DESC: Árvore 10m. Borda da mata.	splink.mun
Aralia warmingiana 	-51.1628	-23.3103	FUEL	36195		Brasil	PR	Londrina	Fazenda Figueira	24	11	2003	Estevan, D.A.; et al.	285	; DESC: Árvore 9m, veg. Fragmento 1.	splink.mun
Aralia warmingiana 	-51.0283	-22.8506	FUEL	36434	Lovato, M.C.	Brasil	PR	Primeiro de Maio	Água da Garça, Sitio Santo Antonio, Sítio Santo Antonio	3	4	2001	Pavão, O.C.; et al.	s.n.	; DESC: Arvore 12m; frutos imaturos verdes; flores verde-creme; beira da estrada.	splink.mun
Aralia warmingiana 	-51.1906	-22.9967	FUEL	36483	Vieira, A.O.S.	Brasil	PR	Bela Vista do Paraíso	Bosque Municipal	18	4	2001	Fadelli, L.; et al.	s.n.	; DESC: Árvore 25m; CAP 2,18m, projeção copa 13,5 x 12m; frutos maduros cor roxa; frutos c. cachos possuindo vários glomérulos; interior do Bosque; VIVEIRO No. 365.	splink.mun
Aralia warmingiana 	-51.1628	-23.3103	FUEL	45827	Lovato, M.C.	Brasil	PR	Londrina	Faz. Figueira	13	4	2003	Estevan, D.A.; et al.	1731	; DESC: Árvore, frutos fragmento 1.	splink.mun
Aralia warmingiana 	-51.1628	-23.3103	SPF	105530	Anônimo	Brasil	PR	Londrina	Parque Estadual Mata dos Godoy	3	3	1993	Soares, LH	307		splink.mun
Aralia warmingiana 	-51.1906	-22.9967	HUEFS	89106		Brasil	PR	Bela Vista do Paraíso	Bosque Municipal	18	4	2001	Fadelli, L.	FUEL36483		splink.mun
Aralia warmingiana 	-51.1628	-23.3103	SP	338575		Brasil	PR	Londrina	Parque Estadual Mata dos Godoy	3	3	1993	Silva, LHS; Silva, FC	307		splink.mun
Aralia warmingiana 	-51.1628	-23.3103	SP	338600		Brasil	PR	Londrina	Floresta Godoy, próximo parc. 5 e 14 da porção norte	18	3	1994	Silva, FC; Silva, LHS	1682		splink.mun
Aralia warmingiana 	-38.2983	-7.99194	IPA	27289	Zoé Brito	Brasil	PE	Serra Talhada	Estação Experimental do IPA, numa unidade experimental do Projeto Caprino.	12	11	1980	Zoé Brito	55	Árvore ca. 3,5m de altura. Rara.; Caatinga. Solo pedregoso.	splink.mun
Aralia warmingiana 	-53.866389	-25.296833	HCF	22244	M.G. Caxambu	Brazil	PR	NA	Parque Nacional do IguaÃ§u - Estrada de	12	1	2017	M.G. Caxambu	7742	Ã¡rvore ca. 15 m, heliÃ³fita. Folhas levemente discolores. Flores com cÃ¡lice verde e corola alva. Casca fissurada. OcorrÃªncia ocasional.	gbif
Aralia warmingiana 	-53.866389	-25.296833	HCF	22244	M.G. Caxambu	Brasil	PR	Céu Azul	Parque Nacional do Iguaçu - Estrada de	12	1	2017	M.G. Caxambu	7742	árvore ca. 15 m, heliófita. Folhas levemente discolores. Flores com cálice verde e corola alva. Casca fissurada. Ocorrência ocasional.	splink
Aralia warmingiana 	-51.1628	-23.3103	SPSF	26004		Brasil	PR	Londrina	Parque Estadual Mata dos Godoy	3	3	1993	L.H.Soares Silva & F.Chagas Silva	307	COLETA: XLS: SPSFAntigo;	splink.mun
Aralia warmingiana 	-52.3831	-24.0456	HCF	2240	J. Cordeiro & E. Barboza	Brasil	PR	Campo Mourão	Pousada A Fazendinha	22	5	2005	H.C.L. Geraldino	18	Árvore ca. 15m, heliófita, tronco cascudo, folhas compostas, opostas, glabras. Presença de frutos em forma de cacho na cor amarelo escuro.	splink.mun
Aralia warmingiana 	-53.3944	-27.3592	HDCF	6040	Longhi, S. J.	Brasil	RS	Frederico Westphalen		10	10	2007	Scipioni, M. C.; Meyer, E. A.	s.n.	Ocorre na Floresta do Alto Uruguai e eventualmente na Floresta da Encosta meridional do Planalto	splink.mun
Aralia warmingiana 	-53.3944	-27.3592	HDCF	6041	Longhi, S. J.	Brasil	RS	Frederico Westphalen		10	10	2007	Scipioni, M. C.; Meyer, E. A.	s.n.		splink.mun
Aralia warmingiana 	-53.9975	-27.474722	ICN	161928	Molz, M	Brazil	RS	NA	Distrito de Padre GonzÃ¡les RS 305 22J203787.57 E 6957398.52 S	10	5	2008	Molz, M	s.n.	NA	gbif
Aralia warmingiana 	-53.9975	-27.474722	ICN	161928	Molz, M	Brasil	RS	Três Passos	Distrito de Padre Gonzáles RS 305 22J203787.57 E 6957398.52 S	10	5	2008	Molz, M	s.n.		splink
Aralia warmingiana 	-53.8608	-27.2647	ICN	21640	Fiaschi, P	Brasil	RS	Derrubadas	Tenente Portela	30	1	1973	Lima, DA	s.n.	Espécie ameaçada de extinção (Em perigo).	splink.mun
Aralia warmingiana 	-49.516667	-19.916667	HRCB	39355	Mendoza, M.	Brasil	SP	Paulo de Faria	Estação Ecológica de Paulo de Faria	20	11	2001	Tomasetto, F.	198	Árvore ca. 20m, botões creme, interior da mata.	splink
Aralia warmingiana 	-49.516667	-19.916667	HRCB	39355	Mendoza, M.	Brazil	SP	NA	EstaÃ§Ã£o EcolÃ³gica de Paulo de Faria	20	11	2001	Tomasetto, F.	198	Ãrvore ca. 20m, botÃµes creme, interior da mata.	gbif
Aralia warmingiana 	-53.3775	-26.471944	FURB	20629	Stival-Santos, A	Brazil	SC	NA	Escondida	13	5	2009	Stival-Santos, A; Schmitt, J; Silveira, S	1524	Fito IFFSC 6005 /L/10	gbif
Aralia warmingiana 	-53.3775	-26.471944	FURB	20629	Stival-Santos, A	Brasil	SC	Palma Sola	Escondida	13	5	2009	Stival-Santos, A; Schmitt, J; Silveira, S	1524	Fito IFFSC 6005 /L/10	splink
Aralia warmingiana 	-60.75	-17.83333	MO	1152044	M. Mendoza (USZ)	Bolivia, Plurinational State of	Santa Cruz	Chiquitos	San Juan de Chiquito. 40 km al Noreste de camino a Bocamina. con elementos de Anadenanthera colubrina; Schinopsis brasiliensis. suelos rojiso.	9	11	1997	Fabiana Mamani M.|Antony Jardim	Mamani M. 1164	NA	gbif
Aralia warmingiana 	-47.55	-21.47	PACA-AGP	67358	P. Fiaschi	Brasil	SP	Sao Simao	Faz. Aritozina	29	1	1982	Leitao f.		Altura de 15m.Herb. Univ. Est. Campinas 13280. Habitat: Em área de transição mata-cerrado. Fenofase: flor creme esverdeada	splink.mun
