scientificname	longitude	latitude	collectioncode	catalognumber	identifiedby	country	stateprovince	county	locality	daycollected	monthcollected	yearcollected	collector	collectornumber	notes	source
Cavanillesia umbellata	-70.26083	-3.81692	COAH	33296	CÃ¡rdenas, D.	Colombia	Amazonas	Leticia	PNN Amacayacu, sector de Mata-MatÃ¡.	20	8	1998	Arias-G., J.C.	559	Ejemplar botÃ¡nico	gbif
Cavanillesia umbellata	-70.54944	-3.76115	COAH	33513	CÃ¡rdenas, D.	Colombia	Amazonas	Puerto NariÃ±o	San Pedro de Tipisca, rÃ­o LoretoyacÃº (afluente del rÃ­o Amazonas), terraza baja, moderadamente disectadas	30	8	1996	Posada, A.	2548	Ejemplar botÃ¡nico	gbif
Cavanillesia umbellata	-70.25	-3.7	FMB	FMB-053862	FernÃ¡ndez-Alonso, JosÃ©	Colombia	Amazonas	Leticia	Alrededores de la quebrada Agua Pudre	24	3	1992	Rudas, AgustÃ­n; Giraldo, D.; Tuberguias, D.; Uribe, F.	3613	NA	gbif
Cavanillesia umbellata	-70.25	-3.733333	HUIS	11111	A. Rudas	Colombia	Amazonas	Leticia	Parque Nacional Natural Amacayacu, quebrada Agua Pudre	24	3	1992	Rudas A.	3613	Ãrbol # 1146 de 10 m. x 24.3 cm	gbif
Cavanillesia umbellata	-70.25	-3.7	MO	189845	A. Rudas (COL)	Colombia	Amazonas	NA	Municipio de Leticia. Parque Nacional Natural Amacayacu. Alrededores de la quebrada Agua Pudre en bosque de terra firme. Parcela E, No. 17.	24	3	1992	Agustin Rudas L.|Diego Giraldo-CaÃ±as|et al.	Rudas Lleras 3613	NA	gbif
Cavanillesia umbellata	-78.63333	-4.5	MO	910332	A. Gentry (MO)	Peru	Amazonas	Condorcanqui	RÃ­o Cenepa.  Vicinity of Huampami, ca. 5 km. east of ChÃ¡vez ValdÃ­via. Chigkan entsa.  Al lado de su casa de UnÃ­sum.  En bosque secundario.	14	8	1978	Ernesto Ancuash Atsut	Ancuash Atsut 1489	NA	gbif
Cavanillesia umbellata	-43.2206	-12.1853	HPL	4291	V.C. Souza	Brasil	BA	Ibotirama	Coletada na estrada para Barreiras.	18	8	1994	H. Lorenzi	1601		splink.mun
Cavanillesia umbellata	-39.046944	-12.221389	HUEFS	195680	NA	Brazil	BA	NA	Fazenda Cruzeiro do MocÃ³.	13	5	2013	Queiroz, A.S.	45	NA	gbif
Cavanillesia umbellata	-41.063611	-13.929167	HUEFS	171799	NA	Brazil	BA	NA	estrada de terra para a Faz. Vargem Grande, saindo da rodovia Contendas do SincorÃ¡-AnagÃ©.	11	3	2011	Carvalho-Sobrinho, J.G.de	2959	Caatinga.	gbif
Cavanillesia umbellata	-41.535278	-14.162222	HUEFS	171808	NA	Brazil	BA	NA	estrada para Sussuarana, ca. 15km do entroncamento.	13	3	2011	Carvalho-Sobrinho, J.G.de	2968	Caatinga.	gbif
Cavanillesia umbellata	-41.168333	-14.6375	HUEFS	175720	NA	Brazil	BA	NA	estrada para a barragem.	16	7	2011	Carvalho-Sobrinho, J.G.de	3178	Caatinga arbÃ³rea.	gbif
Cavanillesia umbellata	-40.521111	-12.417222	HUEFS	132053	NA	Brazil	BA	NA	ARIE Serra do OrobÃ³, Fazenda LeÃ£o dos Brejos.	18	1	2008	Cardoso, D.	2295	Fragmento de floresta estacional.	gbif
Cavanillesia umbellata	-40.5211	-12.4172	NA	1182814	NA	Brazil	BA	Itaberaba	ARIE Serra do OrobÃ³, Fazenda LeÃ£o dos Brejos.	18	1	2008	D. B. O. S. Cardoso	2295	NA	gbif
Cavanillesia umbellata	-41.577778	-12.350278	ALCB	82626	Guedes, ML; Prates, ARS	Brazil	BA	NA	Chapada Diamantina, Lagoa de Santa Rita	7	2	2008	VenÃ¢ncio, AF; Esteves, F	25	de ca 4 m de altura, CAP de 30 cm . Casca lisa, indivÃ­duo jovem. Folhas simples. Material estÃ©ril.; Floresta Estacional DecÃ­dua, Solo Raso calcÃ¡rio.	gbif
Cavanillesia umbellata	-39.7075	-14.181389	ALCB	86585	Guedes, ML	Brazil	BA	NA	Litoral Sul, Mata da Botinha	15	9	2008	Ramos, C.H.A.; Alves, L. de J.; Santos, CE	402	de ca 8 m de altura. Flores com tomentos ferrugÃ­neos. Fruto alado imaturo.	gbif
Cavanillesia umbellata	-42.247222	-13.296389	HUEFS	119342	R.M.Santos	Brazil	BA	NA	NA	29	4	2007	ConceiÃ§Ã£o, A.A.	1975	Caatinga.	gbif
Cavanillesia umbellata	-44.32	-13.586111	HUEFS	118291	R.M.Santos	Brazil	BA	NA	Ca, 5 Km S em estrada de terra que cruza pequeno ramal que sai a 5.1 km E de Ponto d'Ã¡gua, a 24,4 Km S de SÃ£o FÃ©lix do Coribe na estrada para Coribe.	11	4	2007	Queiroz, L.P.de	12794	Floresta estacional.	gbif
Cavanillesia umbellata	-39.183889	-12.161667	HUEFS	120068	NA	Brazil	BA	NA	Fazenda Retiro, ca. 18 Km de Feira de Santana na Estrada do FeijÃ£o sentido IpirÃ¡.	22	5	2007	Cardoso, D.	1981	Floresta estacional semidecÃ­dua com dossel a ca. 20 m alt. e afloramentos rochosos no topo da serra.	gbif
Cavanillesia umbellata	-44.968889	-12.376944	HUEFS	122673	NA	Brazil	BA	NA	BR 135.	2	7	2007	Santos, R.M.	1736	Caatinga arbÃ³rea e afloramento de calcÃ¡rio.	gbif
Cavanillesia umbellata	-44.968889	-12.376944	HUEFS	122710	NA	Brazil	BA	NA	BR 135.	2	7	2007	Santos, R.M.	1773	Caatinga arbÃ³rea e afloramento de calcÃ¡rio.	gbif
Cavanillesia umbellata	-44.666667	-14.381389	HUEFS	126672	NA	Brazil	BA	NA	Faz. de Joel Gonzaga.	18	7	2007	ValadÃ£o, R.de M.	606	Mata decÃ­dua, antropizada.	gbif
Cavanillesia umbellata	-42.225556	-13.290833	HUEFS	121638	NA	Brazil	BA	NA	Caieiras.	5	7	2007	ConceiÃ§Ã£o, A.A.	2393	Caatinga arbÃ³rea.	gbif
Cavanillesia umbellata	-44.666667	-14.381389	ALCB	80074	Guedes, ML	Brazil	BA	NA	Oeste, Faz. de Joel Gonzaga	18	7	2007	ValadÃ£o, R. de M.; Guedes, ML	606	de ca 15 m de altura. InflorescÃªncia cÃ¡lice com tomentos ferrugÃ­neos, botÃµes rÃ³seos, pÃ©talas e estames alvos. Frutos imaturos jovens verdes.	gbif
Cavanillesia umbellata	-44.548611	-14.274444	HUEFS	128853	NA	Brazil	BA	NA	Faz. SÃ£o Domingos.	22	9	2007	Guedes, M.L.S.	13601	Mata de Galeria.	gbif
Cavanillesia umbellata	-44.953333	-12.378889	HUEFS	94359	R.M.Santos	Brazil	BA	NA	BR 135, em direÃ§Ã£o Ã  InhaÃºmas.	6	4	2005	Carvalho-Sobrinho, J.G.de	475	Mata semidecidual (cerrado) com Cavanilesia, Pseudobombax.	gbif
Cavanillesia umbellata	-44.178889	-13.421389	HUEFS	72759	J.G.de Carvalho-Sobrinho	Brazil	BA	NA	2 km na estrada para Lagoinha.	17	7	2003	Leite, K.R.B	301	Ãrea de transiÃ§Ã£o cerrado-caatinga	gbif
Cavanillesia umbellata	-39.5286	-15.1581	NA	1806803	J. A. Kallunki	Brazil	BA	Jussari	Rod. Jussari/Palmira. Entrada ca. 7.5 km de Jussari. Fazenda Teimosos. RPPN Serra do Teimoso	13	8	1998	A. M. Amorim	2467	NA	gbif
Cavanillesia umbellata	-39.528611	-15.158056	MO	100658377	J. Kallunki	Brazil	BA	Jussari	Rod. Jussari/Palmira. Entrada ca. 7.5 km de Jussari. Faz. Teimosos. RPPN Serra do Teimoso. Mata MesÃ³fila.	13	8	1998	AndrÃ© M. Amorim|Jomar G. Jardim|L.M. Berbert|J. Lima PaixÃ£o	Amorim 2467	NA	gbif
Cavanillesia umbellata	-39.183333	-12.166667	HUEFS	6735	NA	Brazil	BA	NA	NA	13	11	1986	Queiroz, L.P.de	1035	NA	gbif
Cavanillesia umbellata	-39.083333	-12.533333	CEPEC	26837	Grupo Pedra do Cavalo	Brazil	BA	NA	Est. da Mata (Barragem de Bananeiras). Vale dos Rios Paraguacu & Jacuipe	15	10	1980	Grupo Pedra do Cavalo	801	Ambiente: Mata. Habito: Ãrvore maior que 5m e menor 20m	gbif
Cavanillesia umbellata	-39.083333	-12.533333	HUEFS	833	NA	Brazil	BA	NA	NA	NA	10	1980	Grupo Pedra do Cavalo	801	NA	gbif
Cavanillesia umbellata	-39.083333	-12.533333	ALCB	8283	Bocage, A	Brazil	BA	NA	RecÃ´ncavo Sul, EstaÃ§Ã£o da Mata ( B. Bananeiras)	NA	10	1980	Grupo Pedra do Cavalo	801	Ca. de 15 - 20 m de alt. Com tronco abaulado; flores e botÃµes veremelho - alaranjado.	gbif
Cavanillesia umbellata	-39.083333	-12.533333	ALCB	8306	Guedes, ML; et al.	Brazil	BA	NA	RecÃ´ncavo Sul, IpuaÃ§u	NA	11	1980	Grupo Pedra do Cavalo	925	Ca. de 12 m de alt. Sem folhas e flores, frutos grandes e alados.	gbif
Cavanillesia umbellata	-39.5338182700265	-15.9545319822605	NA	402428	J. A. Kallunki	Brazil	BA	Itapebi	Faz. Ventania estrada velha ao rio Jequitinonha	17	8	1971	T. S. dos Santos	1856	NA	gbif
Cavanillesia umbellata	-39.4952160228309	-15.1954157528398	NA	402427	J. A. Kallunki	Brazil	BA	Jussari	Itabuna, JuÃ§ari.	24	7	1967	R. S. Pinheiro	135	NA	gbif
Cavanillesia umbellata	-40.521111	-12.417222	HUEFS	132053	NA	Brazil	BA	NA	ARIE Serra do OrobÃ³, Fazenda LeÃ£o dos Brejos.	18	1	2008	Cardoso, D.	2295	Fragmento de floresta estacional.	gbif
Cavanillesia umbellata	-40.5211	-12.4172	NA	1182814	NA	Brazil	BA	Itaberaba	ARIE Serra do OrobÃ³, Fazenda LeÃ£o dos Brejos.	18	1	2008	D. B. O. S. Cardoso	2295	NA	gbif
Cavanillesia umbellata	-42.247222	-13.296389	HUEFS	119342	R.M.Santos	Brazil	BA	NA	NA	29	4	2007	ConceiÃ§Ã£o, A.A.	1975	Caatinga.	gbif
Cavanillesia umbellata	-44.32	-13.586111	HUEFS	118291	R.M.Santos	Brazil	BA	NA	Ca, 5 Km S em estrada de terra que cruza pequeno ramal que sai a 5.1 km E de Ponto d'Ã¡gua, a 24,4 Km S de SÃ£o FÃ©lix do Coribe na estrada para Coribe.	11	4	2007	Queiroz, L.P.de	12794	Floresta estacional.	gbif
Cavanillesia umbellata	-39.183889	-12.161667	HUEFS	120068	NA	Brazil	BA	NA	Fazenda Retiro, ca. 18 Km de Feira de Santana na Estrada do FeijÃ£o sentido IpirÃ¡.	22	5	2007	Cardoso, D.	1981	Floresta estacional semidecÃ­dua com dossel a ca. 20 m alt. e afloramentos rochosos no topo da serra.	gbif
Cavanillesia umbellata	-44.968889	-12.376944	HUEFS	122673	NA	Brazil	BA	NA	BR 135.	2	7	2007	Santos, R.M.	1736	Caatinga arbÃ³rea e afloramento de calcÃ¡rio.	gbif
Cavanillesia umbellata	-44.968889	-12.376944	HUEFS	122710	NA	Brazil	BA	NA	BR 135.	2	7	2007	Santos, R.M.	1773	Caatinga arbÃ³rea e afloramento de calcÃ¡rio.	gbif
Cavanillesia umbellata	-44.666667	-14.381389	HUEFS	126672	NA	Brazil	BA	NA	Faz. de Joel Gonzaga.	18	7	2007	ValadÃ£o, R.de M.	606	Mata decÃ­dua, antropizada.	gbif
Cavanillesia umbellata	-42.225556	-13.290833	HUEFS	121638	NA	Brazil	BA	NA	Caieiras.	5	7	2007	ConceiÃ§Ã£o, A.A.	2393	Caatinga arbÃ³rea.	gbif
Cavanillesia umbellata	-44.548611	-14.274444	HUEFS	128853	NA	Brazil	BA	NA	Faz. SÃ£o Domingos.	22	9	2007	Guedes, M.L.S.	13601	Mata de Galeria.	gbif
Cavanillesia umbellata	-44.953333	-12.378889	HUEFS	94359	R.M.Santos	Brazil	BA	NA	BR 135, em direÃ§Ã£o Ã  InhaÃºmas.	6	4	2005	Carvalho-Sobrinho, J.G.de	475	Mata semidecidual (cerrado) com Cavanilesia, Pseudobombax.	gbif
Cavanillesia umbellata	-44.178889	-13.421389	HUEFS	72759	J.G.de Carvalho-Sobrinho	Brazil	BA	NA	2 km na estrada para Lagoinha.	17	7	2003	Leite, K.R.B	301	Ãrea de transiÃ§Ã£o cerrado-caatinga	gbif
Cavanillesia umbellata	-39.5286	-15.1581	NA	1806803	J. A. Kallunki	Brazil	BA	Jussari	Rod. Jussari/Palmira. Entrada ca. 7.5 km de Jussari. Fazenda Teimosos. RPPN Serra do Teimoso	13	8	1998	A. M. Amorim	2467	NA	gbif
Cavanillesia umbellata	-39.528611	-15.158056	MO	100658377	J. Kallunki	Brazil	BA	Jussari	Rod. Jussari/Palmira. Entrada ca. 7.5 km de Jussari. Faz. Teimosos. RPPN Serra do Teimoso. Mata MesÃ³fila.	13	8	1998	AndrÃ© M. Amorim|Jomar G. Jardim|L.M. Berbert|J. Lima PaixÃ£o	Amorim 2467	NA	gbif
Cavanillesia umbellata	-39.183333	-12.166667	HUEFS	6735	NA	Brazil	BA	NA	NA	13	11	1986	Queiroz, L.P.de	1035	NA	gbif
Cavanillesia umbellata	-39.083333	-12.533333	CEPEC	26837	Grupo Pedra do Cavalo	Brazil	BA	NA	Est. da Mata (Barragem de Bananeiras). Vale dos Rios Paraguacu & Jacuipe	15	10	1980	Grupo Pedra do Cavalo	801	Ambiente: Mata. Habito: Ãrvore maior que 5m e menor 20m	gbif
Cavanillesia umbellata	-39.083333	-12.533333	HUEFS	833	NA	Brazil	BA	NA	NA	NA	10	1980	Grupo Pedra do Cavalo	801	NA	gbif
Cavanillesia umbellata	-39.5338182700265	-15.9545319822605	NA	402428	J. A. Kallunki	Brazil	BA	Itapebi	Faz. Ventania estrada velha ao rio Jequitinonha	17	8	1971	T. S. dos Santos	1856	NA	gbif
Cavanillesia umbellata	-39.4952160228309	-15.1954157528398	NA	402427	J. A. Kallunki	Brazil	BA	Jussari	Itabuna, JuÃ§ari.	24	7	1967	R. S. Pinheiro	135	NA	gbif
Cavanillesia umbellata	-39.5286111	-15.1580556	MOBOT_BR	100658377	J. Kallunki	Brazil	BA	Jussari	Rod. Jussari/Palmira. Entrada ca. 7.5 km de Jussari. Faz. Teimosos. RPPN Serra do Teimoso. Mata Mesófila.	13	8	1998	André M. Amorim|Jomar G. Jardim|L.M. Berbert|J. Lima Paixão	Amorim 2467		splink
Cavanillesia umbellata	-44.666667	-14.381389	ALCB	80074	Guedes, ML	Brasil	BA	Cocos	Oeste, Faz. de Joel Gonzaga	18	7	2007	Valadão, R. de M.; Guedes, ML	606	de ca 15 m de altura. Inflorescência cálice com tomentos ferrugíneos, botões róseos, pétalas e estames alvos. Frutos imaturos jovens verdes.	splink
Cavanillesia umbellata	-41.577778	-12.350278	ALCB	82626	Guedes, ML; Prates, ARS	Brasil	BA	Iraquara	Chapada Diamantina, Lagoa de Santa Rita	7	2	2008	Venâncio, AF; Esteves, F	25	de ca 4 m de altura, CAP de 30 cm . Casca lisa, indivíduo jovem. Folhas simples. Material estéril.; Floresta Estacional Decídua, Solo Raso calcário.	splink
Cavanillesia umbellata	-41.577778	-12.350278	ALCB	82626	Guedes, ML; Prates, ARS	Brasil	BA	Iraquara	Chapada Diamantina, Lagoa de Santa Rita	7	2	2008	Venâncio, AF; Esteves, F	25	de ca 4 m de altura, CAP de 30 cm . Casca lisa, indivíduo jovem. Folhas simples. Material estéril.; Floresta Estacional Decídua, Solo Raso calcário.	splink
Cavanillesia umbellata	-38.966667	-12.266667	ALCB	NA		Brasil	BA	Feira de Santana	Paraguaçu, Próximo a cidade de Feira de Santana. Fazenda Havana	6	12	1998	Guedes, ML; Velozo, ES	6236	19 m. Sem folhas, totalmente frutificada. Ocasional.; com pastagem.	splink
Cavanillesia umbellata	-39.5286	-15.1581	NYBG_BR	NA	J. A. Kallunki	Brasil	BA	Jussari	Rod. Jussari/Palmira. Entrada ca. 7.5 km de Jussari. Fazenda Teimosos. RPPN Serra do Teimoso	13	8	1998	A. M. Amorim	2467	<a href=\http://sweetgum.nybg.org/science/vh/specimen_details.php?irn=2219379\ target=\other\ class=\eLink\> <mi>dwc_moreinfo</mi></a>	splink
Cavanillesia umbellata	-40.5211	-12.4172	NYBG_BR	1182814		Brasil	BA	Itaberaba	ARIE Serra do Orobó, Fazenda Leão dos Brejos.	18	1	2008	D. B. O. S. Cardoso	2295	<a href=\http://sweetgum.nybg.org/science/vh/specimen_details.php?irn=1409012\ target=\other\ class=\eLink\> <mi>dwc_moreinfo</mi></a>	splink
Cavanillesia umbellata	-39.4953	-15.1917	NYBG_BR	402427	J. A. Kallunki	Brasil	BA	Jussari	Itabuna, Juçari.	24	7	1967	R. S. Pinheiro	135	<a href=\http://sweetgum.nybg.org/science/vh/specimen_details.php?irn=150137\ target=\other\ class=\eLink\> <mi>dwc_moreinfo</mi></a>	splink
Cavanillesia umbellata	-39.5339	-15.9508	NYBG_BR	402428	J. A. Kallunki	Brasil	BA	Itapebi	Faz. Ventania estrada velha ao rio Jequitinonha	17	8	1971	T. S. dos Santos	1856	<a href=\http://sweetgum.nybg.org/science/vh/specimen_details.php?irn=150138\ target=\other\ class=\eLink\> <mi>dwc_moreinfo</mi></a>	splink
Cavanillesia umbellata	-44.32	-13.586111	HUEFS	118291	R.M.Santos	Brasil	BA	Coribe	Ca, 5 Km S em estrada de terra que cruza pequeno ramal que sai a 5.1 km E de Ponto d'água, a 24,4 Km S de São Félix do Coribe na estrada para Coribe.	11	4	2007	Queiroz, L.P.de	12794	Floresta estacional.	splink
Cavanillesia umbellata	-42.247222	-13.296389	HUEFS	119342	R.M.Santos	Brasil	BA	Paramirim		29	4	2007	Conceição, A.A.	1975	Caatinga.	splink
Cavanillesia umbellata	-39.183889	-12.161667	HUEFS	120068		Brasil	BA	Anguera	Fazenda Retiro, ca. 18 Km de Feira de Santana na Estrada do Feijão sentido Ipirá.	22	5	2007	Cardoso, D.	1981	Floresta estacional semidecídua com dossel a ca. 20 m alt. e afloramentos rochosos no topo da serra.	splink
Cavanillesia umbellata	-42.225556	-13.290833	HUEFS	121638		Brasil	BA	Caturama	Caieiras.	5	7	2007	Conceição, A.A.	2393	Caatinga arbórea.	splink
Cavanillesia umbellata	-44.968889	-12.376944	HUEFS	122673		Brasil	BA	São Desidério	BR 135.	2	7	2007	Santos, R.M.	1736	Caatinga arbórea e afloramento de calcário.	splink
Cavanillesia umbellata	-44.968889	-12.376944	HUEFS	122710		Brasil	BA	São Desidério	BR 135.	2	7	2007	Santos, R.M.	1773	Caatinga arbórea e afloramento de calcário.	splink
Cavanillesia umbellata	-44.666667	-14.381389	HUEFS	126672		Brasil	BA		Faz. de Joel Gonzaga.	18	7	2007	Valadão, R.de M.	606	Mata decídua, antropizada.	splink
Cavanillesia umbellata	-44.548611	-14.274444	HUEFS	128853		Brasil	BA		Faz. São Domingos.	22	9	2007	Guedes, M.L.S.	13601	Mata de Galeria.	splink
Cavanillesia umbellata	-40.521111	-12.417222	HUEFS	132053		Brasil	BA	Itaberaba	ARIE Serra do Orobó, Fazenda Leão dos Brejos.	18	1	2008	Cardoso, D.	2295	Fragmento de floresta estacional.	splink
Cavanillesia umbellata	-39.183333	-12.166667	HUEFS	6735		Brasil	BA	Feira de Santana		13	11	1986	Queiroz, L.P.de	1035		splink
Cavanillesia umbellata	-44.178889	-13.421389	HUEFS	72759	J.G.de Carvalho-Sobrinho	Brasil	BA	São Félix do Coribe	2 km na estrada para Lagoinha.	17	7	2003	Leite, K.R.B	301	Área de transição cerrado-caatinga	splink
Cavanillesia umbellata	-44.953333	-12.378889	HUEFS	94359	R.M.Santos	Brasil	BA	São Desidério	BR 135, em direção à Inhaúmas.	6	4	2005	Carvalho-Sobrinho, J.G.de	475	Mata semidecidual (cerrado) com Cavanilesia, Pseudobombax.	splink
Cavanillesia umbellata	-41.063611	-13.929167	HUEFS	171799		Brasil	BA	Contendas do Sincorá	estrada de terra para a Faz. Vargem Grande, saindo da rodovia Contendas do Sincorá-Anagé.	11	3	2011	Carvalho-Sobrinho, J.G.de	2959	Caatinga.	splink
Cavanillesia umbellata	-41.535278	-14.162222	HUEFS	171808		Brasil	BA	Brumado	estrada para Sussuarana, ca. 15km do entroncamento.	13	3	2011	Carvalho-Sobrinho, J.G.de	2968	Caatinga.	splink
Cavanillesia umbellata	-41.168333	-14.6375	HUEFS	175720		Brasil	BA	Anagé	estrada para a barragem.	16	7	2011	Carvalho-Sobrinho, J.G.de	3178	Caatinga arbórea.	splink
Cavanillesia umbellata	-39.046944	-12.221389	HUEFS	195680		Brasil	BA	Feira de Santana	Fazenda Cruzeiro do Mocó.	13	5	2013	Queiroz, A.S.	45		splink
Cavanillesia umbellata	-38.9558	-12.6183	BAH	NA	Scardino, Noblick, Paranhos, Guedes, C. Queiroz, Paganucci, Nascimento, N. Suely, Quaglia.	Brasil	BA	Cachoeira	Estação da Mata (Bananeiras).	NA	10	1980	Go. Pedra do Cavalo	801	Árvore de 15-20 m de altura e com tronco abaulado, flores e botões vermelho-alaranjados.	splink.mun
Cavanillesia umbellata	-39.4953	-15.1914	CEPEC	NA	J. A. Kallunki	Brasil	BA	JUSSARÍ		24	7	1967	R. S. Pinheiro	135	Ambiente: Mata Higrofila. Habito: Árvore maior que 20m e menor que 50m	splink.mun
Cavanillesia umbellata	-39.5339	-15.9508	CEPEC	NA	T. S. dos Santos	Brasil	BA	ITAPEBÍ	Faz. Ventania Estr. velha ao Rio Jequitinhonha.	17	8	1971	T. S. dos Santos	1856	Ambiente: Mata Higrofila. Habito: Árvore maior que 5m e menor 20m	splink.mun
Cavanillesia umbellata	-38975	-11.9583	HUEFS	122632		Brasil	BA	Santa Bárbara		2	7	2007	Santos, R.M.	1695	Transição caatinga - Floresta	splink.mun
Cavanillesia umbellata	-44.0511	-12.9833	HUEFS	171827		Brasil	BA	Santana	localidade de Porto Novo, 8km da vila em direção a Santana.	15	3	2011	Carvalho-Sobrinho, J.G.de	2987	Caatinga sobre afloramentos calcários.	splink.mun
Cavanillesia umbellata	-43.4181	-13255	UEC	NA		Brazil	BA	Bom Jesus da Lapa	Estrada para Ibotirama. Caatinga.	19	8	1994	Árbocz, G.F.	671	Frutífero. Árvore de aproximadamente 25 - 30 m de altura. Fruto rosa. Estimativa de frutificação: agosto a outubro.	splink.mun
Cavanillesia umbellata	-65.5	-14	Botany	NA	R. B. Foster : Field Museum of Natural History	Bolivia, Plurinational State of	Beni	NA	NA	28	5	1988	S. G. Beck	16640	NA	gbif
Cavanillesia umbellata	-40.331256	-19.825304	CVRD	13900	Folli, D. A.	Brazil	ES	NA	NA	19	9	2012	Folli, D.A.	6914	<ll>dwc_commonname:</ll> Barriguda	gbif
Cavanillesia umbellata	-40.331256	-19.825304	CVRD	13900	Folli, D. A.	Brazil	ES	NA	NA	19	9	2012	Folli, D.A.	6914	<ll>dwc_commonname:</ll> Barriguda	gbif
Cavanillesia umbellata	-40.331256	-19.825304	CVRD	13900	Folli, D. A.	BRASIL	ES	ARACRUZ		19	9	2012	Folli, D.A.	6914	<ll>dwc_commonname:</ll> Barriguda	splink
Cavanillesia umbellata	-40.0722	-19.3911	CVRD	14487	Folli, D. A	BRASIL	ES	LINHARES		13	8	2013	Folli, D.A.	7103	Mata de aluvial na cabruca cacau. <ll>dwc_commonname:</ll> Barriguda	splink.mun
Cavanillesia umbellata	-40.0722	-19.3911	CVRD	9823	Folli, D. A.	BRASIL	ES	LINHARES		1	11	2006	Folli, D.A.	5395	Fazenda 3 Marias <ll>dwc_commonname:</ll> Barriguda	splink.mun
Cavanillesia umbellata	-40.443889	-18.776944	MBML-HERBARIO	35647	J.G. Carvalho Sobrinho/IX-2016	Brazil	ES	NA	Ãrea de ProteÃ§Ã£o Ambiental da Pedra do Elefante	18	7	2008	A. M. Amorim	7560	NA	gbif
Cavanillesia umbellata	-40.443889	-18.776944	MBML_HERBARIO	35647	J.G. Carvalho Sobrinho/IX-2016	Brazil	ES	NA	Ãrea de ProteÃ§Ã£o Ambiental da Pedra do Elefante	18	7	2008	A. M. Amorim	7560	NA	gbif
Cavanillesia umbellata	-40.43	-20.095556	MBML_HERBARIO	31618	V. Demuner 30/08/2007	Brazil	ES	NA	Colina Verde, Morro do Agudo, D. Maria	30	8	2007	R.R. Vervloet	3370	Ãrvore 12m, frutos imaturos de cor verde avermelhados. Ambiente rupestre.	gbif
Cavanillesia umbellata	-40.43	-20.095556	MBML-HERBARIO	31618	V. Demuner 30/08/2007	Brazil	ES	NA	Colina Verde, Morro do Agudo, D. Maria	30	8	2007	R.R. Vervloet	3370	Ãrvore 12m, frutos imaturos de cor verde avermelhados. Ambiente rupestre.	gbif
Cavanillesia umbellata	-40.431667	-20.093889	MBML-HERBARIO	27156	V. Demuner & L.F.S. Magnago, 14-set-06	Brazil	ES	NA	Morro Agudo, Prop.: Dona Maria	14	9	2006	V. Demuner	2884	Ãrvore 15m, fuste 9m, Dap 60cm, frutos marrom (barriguda). Interior de mata.	gbif
Cavanillesia umbellata	-40.431667	-20.093889	MBML_HERBARIO	27156	V. Demuner & L.F.S. Magnago, 14-set-06	Brazil	ES	NA	Morro Agudo, Prop.: Dona Maria	14	9	2006	V. Demuner	2884	Ãrvore 15m, fuste 9m, Dap 60cm, frutos marrom (barriguda). Interior de mata.	gbif
Cavanillesia umbellata	-40.734722	-18.906944	MBML-HERBARIO	28319	V. Demuner & L.F.S. Magnago, 17-out-06	Brazil	ES	NA	16 de Abril	17	10	2006	V. Demuner	2905	Ãrvore 20m, fuste 17m, DAP 1m, frutos marrom. Interior de mata alterada.	gbif
Cavanillesia umbellata	-40.734722	-18.906944	MBML_HERBARIO	28319	V. Demuner & L.F.S. Magnago, 17-out-06	Brazil	ES	NA	16 de Abril	17	10	2006	V. Demuner	2905	Ãrvore 20m, fuste 17m, DAP 1m, frutos marrom. Interior de mata alterada.	gbif
Cavanillesia umbellata	-40.43	-20.095556	MBML_HERBARIO	31618	V. Demuner 30/08/2007	Brazil	ES	NA	Colina Verde, Morro do Agudo, D. Maria	30	8	2007	R.R. Vervloet	3370	Ãrvore 12m, frutos imaturos de cor verde avermelhados. Ambiente rupestre.	gbif
Cavanillesia umbellata	-40.43	-20.095556	MBML-HERBARIO	31618	V. Demuner 30/08/2007	Brazil	ES	NA	Colina Verde, Morro do Agudo, D. Maria	30	8	2007	R.R. Vervloet	3370	Ãrvore 12m, frutos imaturos de cor verde avermelhados. Ambiente rupestre.	gbif
Cavanillesia umbellata	-40.431667	-20.093889	MBML-HERBARIO	27156	V. Demuner & L.F.S. Magnago, 14-set-06	Brazil	ES	NA	Morro Agudo, Prop.: Dona Maria	14	9	2006	V. Demuner	2884	Ãrvore 15m, fuste 9m, Dap 60cm, frutos marrom (barriguda). Interior de mata.	gbif
Cavanillesia umbellata	-40.431667	-20.093889	MBML_HERBARIO	27156	V. Demuner & L.F.S. Magnago, 14-set-06	Brazil	ES	NA	Morro Agudo, Prop.: Dona Maria	14	9	2006	V. Demuner	2884	Ãrvore 15m, fuste 9m, Dap 60cm, frutos marrom (barriguda). Interior de mata.	gbif
Cavanillesia umbellata	-40.734722	-18.906944	MBML-HERBARIO	28319	V. Demuner & L.F.S. Magnago, 17-out-06	Brazil	ES	NA	16 de Abril	17	10	2006	V. Demuner	2905	Ãrvore 20m, fuste 17m, DAP 1m, frutos marrom. Interior de mata alterada.	gbif
Cavanillesia umbellata	-40.734722	-18.906944	MBML_HERBARIO	28319	V. Demuner & L.F.S. Magnago, 17-out-06	Brazil	ES	NA	16 de Abril	17	10	2006	V. Demuner	2905	Ãrvore 20m, fuste 17m, DAP 1m, frutos marrom. Interior de mata alterada.	gbif
Cavanillesia umbellata	-40.431667	-20.093889	MBML-HERBARIO	27156	V. Demuner & L.F.S. Magnago, 14-set-06	Brasil	ES	Santa Leopoldina	Morro Agudo, Prop.: Dona Maria	14	9	2006	V. Demuner	2884	Árvore 15m, fuste 9m, Dap 60cm, frutos marrom (barriguda). Interior de mata.	splink
Cavanillesia umbellata	-40.734722	-18.906944	MBML-HERBARIO	28319	V. Demuner & L.F.S. Magnago, 17-out-06	Brasil	ES	Águia Branca	16 de Abril	17	10	2006	V. Demuner	2905	Árvore 20m, fuste 17m, DAP 1m, frutos marrom. Interior de mata alterada.	splink
Cavanillesia umbellata	-40.43	-20.095556	MBML-HERBARIO	31618	V. Demuner 30/08/2007	Brasil	ES	Santa Leopoldina	Colina Verde, Morro do Agudo, D. Maria	30	8	2007	R.R. Vervloet	3370	Árvore 12m, frutos imaturos de cor verde avermelhados. Ambiente rupestre.	splink
Cavanillesia umbellata	-40.443889	-18.776944	MBML-HERBARIO	35647	J.G. Carvalho Sobrinho/IX-2016	Brasil	ES	Nova Venécia	Área de Proteção Ambiental da Pedra do Elefante	18	7	2008	A. M. Amorim	7560		splink
Cavanillesia umbellata	-46.724306	-14.539583	CNMT	3313		Brasil	GO	Alvorada do Norte	Fazenda Itú	25	8	2003	Sevilha, A.C.; Guarino,E.S.G.;Pereira,J.B.	3084	Cerca de 12 metros de altura	splink
Cavanillesia umbellata	-46.723889	-14.539167	CNMT	3313		Brasil	GO	Alvorada do Norte	Fazenda Itú	25	8	2003	Sevilha, A.C.; Guarino,E.S.G.;Pereira,J.B.	3084	Ponto 3; Ambiente : Cerrado(Floresta Estacional Decimal); Relevo: Altiplano; Substrato: Neossolo Quartzorênico; Flor: Branca; Fruto: Imaturo Verde; Tubo Da Corola Vináceo, Estame Brancos ; Sobre afloramento calcário.	splink
Cavanillesia umbellata	-46.723889	-14.539167	CNMT	3358		Brasil	GO	Alvorada do Norte	Fazenda Itú	25	8	2003	Sevilha, A.C.; Guarino,E.S.G.;Pereira,J.B.	3084	Ponto 3; Ambiente : Cerrado(Floresta Estacional Decimal); Relevo: Altiplano; Substrato: Neossolo Quartzorênico; Flor: Branca; Fruto: Imaturo Verde; Tubo Da Corola Vináceo, Estame Brancos ; Sobre afloramento calcário.	splink
Cavanillesia umbellata	-46.58	-13.92	NYBG_BR	778774	B. A. S. Pereira	Brasil	GO	Guarani de Goiás	No. km 16 da estrada Posse/Guarani de Goiás.	13	8	1995	B. A. S. Pereira	2819	<a href=\http://sweetgum.nybg.org/science/vh/specimen_details.php?irn=798383\ target=\other\ class=\eLink\> <mi>dwc_moreinfo</mi></a>	splink
Cavanillesia umbellata	-46.8675	-13.744167	HEPH	32252		Brasil	GO	Nova Roma	Entrada de Nova Roma	25	8	2016	Jesus, FPR de	412	Muito frequente; Árvore 15m; flor creme; fruto verde, fica marrom quando maduro; Campo rupestre; solo rochoso	splink
Cavanillesia umbellata	-46.7725	-13.615556	HUEFS	176785		Brasil	GO	São Domingos	Fazenda Flor do Ermo.Prop. José Pereira.,	8	8	1999	Sevilha, A.C.	1823	Mata decídua.	splink
Cavanillesia umbellata	-46.723889	-14.539167	HUEFS	176843		Brasil	GO	Alvorada do Norte	Fazenda Itú, (Sr. Felipe). Ponto 3.	25	8	2003	Sevilha, A.C.	3084	Cerrado (Floresta Estacional Decidual).	splink
Cavanillesia umbellata	-46.4803	-13.9358	UB	NA	Pereira, BAS	Brasil	GO	Guarani de Goiás		NA	NA	1996	Pereira, BAS	3121	.	splink.mun
Cavanillesia umbellata	-46.8803	-13.7419	HEPH	NA	Paiva, VF; Oliveira, MS	Brasil	GO	Nova Roma		18	8	2011	Jesus, FPR de	349	Árvore; frutos jovens de cor verde; Fruto Imaturos verdes; Beira de estrada; Relevo Inclinado	splink.mun
Cavanillesia umbellata	-46.8803	-13.7419	HEPH	NA	Paiva, VF; Oliveira, MS	Brasil	GO	Nova Roma		24	10	2011	Jesus, FPR de	351	Plântula de mais ou menos 20cm; Fruto Imaturos verdes;; Beira de estr.interna da Reserva(Borda de cerrado; Relevo Declive	splink.mun
Cavanillesia umbellata	-46.7717	-13.0367	HUEFS	24143		Brasil	GO	Campos Belos		16	8	1990	Cavalcanti, T.B.	713		splink.mun
Cavanillesia umbellata	-47.0503	-14.4486	UEC	NA	Pereira, B.A.S.	Brazil	GO	Flores de Goiás	Testemunha de mata existente entre a cidade nova e a cidade velha. Mata decídua situada no Km 32 da estrada de terra.. Alvorada do Norte.	9	9	1994	Pereira, B.A.S.	2615	Árvore com cerca de 15 m de altura com tronco em forma de túnel. Casca muito espessa. Madeira rica em parênquima. Flores brancas.	splink.mun
Cavanillesia umbellata	-46.8675	-13.744167	HEPH	32252	NA	Brazil	GO	NA	Entrada de Nova Roma	25	8	2016	Jesus, FPR de	412	Muito frequente; Ãrvore 15m; flor creme; fruto verde, fica marrom quando maduro; Campo rupestre; solo rochoso	gbif
Cavanillesia umbellata	-46.723889	-14.539167	HUEFS	176843	NA	Brazil	GO	NA	Fazenda ItÃº, (Sr. Felipe). Ponto 3.	25	8	2003	Sevilha, A.C.	3084	Cerrado (Floresta Estacional Decidual).	gbif
Cavanillesia umbellata	-46.723889	-14.539167	CNMT	3358	NA	Brazil	GO	NA	Fazenda ItÃº	25	8	2003	Sevilha, A.C.; Guarino,E.S.G.;Pereira,J.B.	3084	Ponto 3; Ambiente : Cerrado(Floresta Estacional Decimal); Relevo: Altiplano; Substrato: Neossolo QuartzorÃªnico; Flor: Branca; Fruto: Imaturo Verde; Tubo Da Corola VinÃ¡ceo, Estame Brancos ; Sobre afloramento calcÃ¡rio.	gbif
Cavanillesia umbellata	-46.723889	-14.539167	CNMT	3313	NA	Brazil	GO	NA	Fazenda ItÃº	25	8	2003	Sevilha, A.C.; Guarino,E.S.G.;Pereira,J.B.	3084	Ponto 3; Ambiente : Cerrado(Floresta Estacional Decimal); Relevo: Altiplano; Substrato: Neossolo QuartzorÃªnico; Flor: Branca; Fruto: Imaturo Verde; Tubo Da Corola VinÃ¡ceo, Estame Brancos ; Sobre afloramento calcÃ¡rio.	gbif
Cavanillesia umbellata	-46.7725	-13.615556	HUEFS	176785	NA	Brazil	GO	NA	Fazenda Flor do Ermo.Prop. JosÃ© Pereira.,	8	8	1999	Sevilha, A.C.	1823	Mata decÃ­dua.	gbif
Cavanillesia umbellata	-46.58	-13.92	NA	778774	B. A. S. Pereira	Brazil	GO	Guarani de GoiÃ¡s	No. km 16 da estrada Posse/Guarani de GoiÃ¡s.	13	8	1995	B. A. S. Pereira	2819	NA	gbif
Cavanillesia umbellata	-46.8675	-13.744167	HEPH	32252	NA	Brazil	GO	NA	Entrada de Nova Roma	25	8	2016	Jesus, FPR de	412	Muito frequente; Ãrvore 15m; flor creme; fruto verde, fica marrom quando maduro; Campo rupestre; solo rochoso	gbif
Cavanillesia umbellata	-46.723889	-14.539167	HUEFS	176843	NA	Brazil	GO	NA	Fazenda ItÃº, (Sr. Felipe). Ponto 3.	25	8	2003	Sevilha, A.C.	3084	Cerrado (Floresta Estacional Decidual).	gbif
Cavanillesia umbellata	-46.723889	-14.539167	CNMT	3358	NA	Brazil	GO	NA	Fazenda ItÃº	25	8	2003	Sevilha, A.C.; Guarino,E.S.G.;Pereira,J.B.	3084	Ponto 3; Ambiente : Cerrado(Floresta Estacional Decimal); Relevo: Altiplano; Substrato: Neossolo QuartzorÃªnico; Flor: Branca; Fruto: Imaturo Verde; Tubo Da Corola VinÃ¡ceo, Estame Brancos ; Sobre afloramento calcÃ¡rio.	gbif
Cavanillesia umbellata	-46.723889	-14.539167	CNMT	3313	NA	Brazil	GO	NA	Fazenda ItÃº	25	8	2003	Sevilha, A.C.; Guarino,E.S.G.;Pereira,J.B.	3084	Ponto 3; Ambiente : Cerrado(Floresta Estacional Decimal); Relevo: Altiplano; Substrato: Neossolo QuartzorÃªnico; Flor: Branca; Fruto: Imaturo Verde; Tubo Da Corola VinÃ¡ceo, Estame Brancos ; Sobre afloramento calcÃ¡rio.	gbif
Cavanillesia umbellata	-46.7725	-13.615556	HUEFS	176785	NA	Brazil	GO	NA	Fazenda Flor do Ermo.Prop. JosÃ© Pereira.,	8	8	1999	Sevilha, A.C.	1823	Mata decÃ­dua.	gbif
Cavanillesia umbellata	-46.58	-13.92	NA	778774	B. A. S. Pereira	Brazil	GO	Guarani de GoiÃ¡s	No. km 16 da estrada Posse/Guarani de GoiÃ¡s.	13	8	1995	B. A. S. Pereira	2819	NA	gbif
Cavanillesia umbellata	-47.0503	-14.4486	NMNH_BOTANY_BR	2206906		Brazil	GO	Flores de Goias	Alvorada do Norte.	9	9	1994	B. A. S. Pereira	2615		splink.mun
Cavanillesia umbellata	-75.8333	-9.5	Botany	NA	A. H. Gentry	Peru	Hu<U+FFFD>nuco	NA	NA	31	5	1983	A. H. Gentry	41362	NA	gbif
Cavanillesia umbellata	-75.01666	-8.75	MO	189022	A. Gentry	Peru	HuÃ¡nuco	NA	Km 11 to Km 12. Carretera Marginal (in construction) S of Pucallpa-  Tingo Maria road at Bosque von Humboldt.	31	5	1983	Alwyn H. Gentry|Nestor Jaramillo	Gentry 41362	NA	gbif
Cavanillesia umbellata	-74.306111	-11.1425	E	E00509174	NA	Peru	JunÃ­n	NA	Road Puerto Ocopa - Atalaya	25	9	2007	Pennington, R.Toby	1927	NA	gbif
Cavanillesia umbellata	-68.527778	-14235	MO	2879912	A. Fuentes (LPB)	Bolivia, Plurinational State of	La Paz	Franz Tamayo	Ãrea Natural de Manejo Integrado Madidi, Azariamas, frente al arroyo Jaukantista.  Terraza antigua. Plantas NO alcoholizadas.	29	9	2005	L. Cayola|C. Campos|A.S. Poma C.|Remberto Jove|H. Urbano	Cayola PÃ©rez 1818	NA	gbif
Cavanillesia umbellata	-68.51111	-14.21277	MO	2881035	A. Fuentes (LPB)	Bolivia, Plurinational State of	La Paz	Franz Tamayo	Parque Nacional Madidi, Azariamas, arroyo San Roque. Bosque de yungas subandino pluviestacional con Pentaplaris davidsmithii y Erythrochiton fallax. Fondo de valle. Parcela temporal de muestreo (0,1 ha). Plantas NO alcoholizadas.	11	10	2005	L. Cayola|C. Campos|A.S. Poma C.|Remberto Jove|H. Urbano	Cayola PÃ©rez 2004	NA	gbif
Cavanillesia umbellata	-67.78861	-14.98777	MO	1749941	I. Loza (LPB)	Bolivia, Plurinational State of	La Paz	Franz Tamayo	Parque Nacional Madidi, rÃ­o Quendeque, detrÃ¡s del campamento "Retamas". Bosque amazÃ³nico pluviestacional hÃºmedo, de piedemonte subandino, bien drenado, con Pentaplaris davidsmithii, Arecaceae spp, Annonaceae spp, Burseraceae spp, Moraceae spp. En terraza antigua. Parcela Temporal de Muestreo (0.1 ha) 4.	28	1	2002	D. De la Quintana	De la Quintana 174	NA	gbif
Cavanillesia umbellata	-67.79333	-14.97666	MO	1764448	V. Cardona, Rev. W. Alverson (F)	Bolivia, Plurinational State of	La Paz	Franz Tamayo	Parque Madidi, orilla izquierda RÃ­o Quendeque, una hora del campamento Retamas. bosque bajo, con muchas palmeras, bejucos, en el sotobosque muchas marantaceas y Asplundia	25	1	2002	Renate Seidel|et al.	Seidel 8450	NA	gbif
Cavanillesia umbellata	-67.956111	-14.367222	MO	1854564	I. Loza (LPB)	Bolivia, Plurinational State of	La Paz	Abel Iturralde	Ãrea Natural de Manejo Integrado Madidi. Arroyo Rudidi, sobre el RÃ­o Tuichi.	14	10	2002	Alejandro Araujo M.|HÃ©ctor Cabrera|M.H. Calzadilla|Fabiola Torrico|Leopoldo Lucia|L. Quetehuari|Justino Navi|Marcelino Villanueva	Araujo Murakami 374	NA	gbif
Cavanillesia umbellata	-68	-15.5	Botany	NA	R. Seidel	Bolivia, Plurinational State of	La Paz	NA	NA	26	2	1992	R. Seidel	5706	NA	gbif
Cavanillesia umbellata	-73.5	-4.166667	MO	188621	NA	Peru	Loreto	Maynas	Distrito Iquitos. Allpahuayo, estaciÃ³n IIAP. Bosque primario.	14	10	1993	Rodolfo VÃ¡squez	VÃ¡squez MartÃ­nez 18338	NA	gbif
Cavanillesia umbellata	-72933	-3241	MO	190042	R. Vasquez (MO)	Peru	Loreto	Maynas	Yanamono, Explorama Tourist Camp, halfway between Indiana and mouth of RÃ­o Napo, non- flooded forest on rather fertile soil.	30	7	1988	H. van der Werff|et al.	van der Werff 9853	NA	gbif
Cavanillesia umbellata	-73.33333	-4.58333	MO	190325	J.L. Fernandez A. (COL)	Peru	Loreto	Maynas	Dtto. Iquitos, Km 42 Carretera Iquitos-Nauta. Bosque primario.	18	8	1987	Rodolfo VÃ¡squez|Nestor Jaramillo	VÃ¡squez MartÃ­nez 9378	NA	gbif
Cavanillesia umbellata	-76.46666	-2.8	MO	188341	A. Gentry	Peru	Loreto	Alto Amazonas	Andoas, RÃ­o Pastaza near Ecuador border. Mature and disturbed forest on lateritic soil.	14	8	1980	Alwyn H. Gentry|Rodolfo VÃ¡squez|Nestor Jaramillo	Gentry 29688	NA	gbif
Cavanillesia umbellata	-69.05	-12.48333	MO	189926	R. Vasquez (MO)	Peru	Madre de Dios	Tambopata	Las Piedras. Cusco AmazÃ³nico. Inventario Permanente. Plantas colectadas en trocha F y I.	29	10	1991	MartÃ­n E. TimanÃ¡|Nestor Jaramillo	TimanÃ¡ 2868	NA	gbif
Cavanillesia umbellata	-69.05	-12.48333	MO	189932	R. Vasquez (MO)	Peru	Madre de Dios	Tambopata	Las Piedras. Cusco AmazÃ³nico. Inventario Permanente. Plantas colectadas en trocha F y I.	29	10	1991	MartÃ­n E. TimanÃ¡|Nestor Jaramillo	TimanÃ¡ 2871	NA	gbif
Cavanillesia umbellata	-69.05	-12.58333	MO	190183	M. Timana (MO)	Peru	Madre de Dios	Tambopata	Cusco AmazÃ³nico Lodge. TREEPLOTS	16	4	1990	Percy NÃºÃ±ez V.	NÃºÃ±ez Vargas 12121	NA	gbif
Cavanillesia umbellata	-70.25	-12	Botany	NA	NA	Peru	Madre de Dios	NA	NA	29	7	1984	R. B. Foster	9716	NA	gbif
Cavanillesia umbellata	-70.25	-12	Botany	NA	NA	Peru	Madre de Dios	NA	NA	30	9	1980	R. B. Foster	5432	NA	gbif
Cavanillesia umbellata	-70.25	-12	Botany	NA	NA	Peru	Madre de Dios	NA	NA	30	9	1980	R. B. Foster	5432	NA	gbif
Cavanillesia umbellata	-71.366667	-11.9	MO	1452491	A. Gentry	Peru	Madre de Dios	NA	Trails 4, 5 and 9, Cashu Cocha Camp, Manu National Park.	21	10	1979	Alwyn H. Gentry|James Aronson|RamÃ³n RamÃ­rez Catauga	Gentry 27075	NA	gbif
Cavanillesia umbellata	-41.284297	-19.441252	CVRD	12533	Folli, D. A.	Brazil	MG	NA	NA	3	9	2009	Luz, A.A. da	508	<ll>dwc_commonname:</ll> Barriguda	gbif
Cavanillesia umbellata	-41.284297	-19.441252	CVRD	12533	Folli, D. A.	Brazil	MG	NA	NA	3	9	2009	Luz, A.A. da	508	<ll>dwc_commonname:</ll> Barriguda	gbif
Cavanillesia umbellata	-41.284297	-19.441252	CVRD	12533	Folli, D. A.	BRASIL	MG	ITUETA		3	9	2009	Luz, A.A. da	508	<ll>dwc_commonname:</ll> Barriguda	splink
Cavanillesia umbellata	-44.3617	-15.4881	HPL	4292	V.C. Souza	Brasil	MG	Januária	Coletada na fazenda Santa cecília de Sebastião Mentans.	18	8	1994	H. Lorenzi	1649		splink.mun
Cavanillesia umbellata	-41.1703	-19.3942	CVRD	10544	Folli, D. A.	BRASIL	MG	ITUETA		7	11	2007	Folli, D.A.	5762	<ll>dwc_commonname:</ll> Barriguda	splink.mun
Cavanillesia umbellata	-43.859167	-15.210278	UEC	123679	NA	Brazil	MG	NA	Furados, lado esq. da estrada Jaiba/ mocambinho	19	10	2001	Lombardi, J.A.; Dutilh, J.H.A.; Semir, J.	4449	Ãreas mais elevadas de carrasco em volta do lageado, terreno argiloso. Ãrvore, ca. 25m, sem folhas, frutos caidos, plÃ¢ntulas emergindo, cotilÃ©dones carnosos	gbif
Cavanillesia umbellata	-43.916667	-14.333333	UB	148743	NA	Brazil	MG	NA	Between Caninanha and Manga.	4	8	1998	Ratter, JA	8061	Flowers orange-scarlet. Fruits dark rose colour.; Tree 20m tall.	gbif
Cavanillesia umbellata	-43.859167	-15.210278	UEC	123679	NA	Brazil	MG	NA	Furados, lado esq. da estrada Jaiba/ mocambinho	19	10	2001	Lombardi, J.A.; Dutilh, J.H.A.; Semir, J.	4449	Ãreas mais elevadas de carrasco em volta do lageado, terreno argiloso. Ãrvore, ca. 25m, sem folhas, frutos caidos, plÃ¢ntulas emergindo, cotilÃ©dones carnosos	gbif
Cavanillesia umbellata	-43.916667	-14.333333	UB	148743	NA	Brazil	MG	NA	Between Caninanha and Manga.	4	8	1998	Ratter, JA	8061	Flowers orange-scarlet. Fruits dark rose colour.; Tree 20m tall.	gbif
Cavanillesia umbellata	-44.3617	-15.4881	HMC	NA	Santos R.M.	Brasil	MG	Januária	APA do Rio Pandeiros	16	8	2009	Menino, G.C.O.; Braga, L.L.; Coutinho,C.A.; Oliveira, M.H.; Silva, W.A.;		Ilha 5	splink.mun
Cavanillesia umbellata	-43.9322	-14.7558	HMC	NA	Santos R.M.	Brasil	MG	Manga	Parque Estadual da Mata Seca	10	2	2010	Luz, G.R.; Coutinho, E.S.; Dantas, I.M.; Mota, G.S.; Mota, N.M.; Oliveira, M.H.; Rodrigues, P.L.; Silva, D.L.; Souza, M.L.; Souza, S.R.; Veloso, C.V.R.A.;	76		splink.mun
Cavanillesia umbellata	-44.3617	-15.4881	UEC	NA		Brazil	MG	Januária	Fazenda Santa Cecília. Mata seca.	17	8	1994	Árbocz, G.F.	659	Material coletado: vegetativo. Florífero. Árvore de aproximadamente 25 - 30 m de altura, 1,0 m DAP. Tronco com desenhos em relevo. Sem folhas, apenas flores. Flores rosas. Estimativa de florescimento: julho e agosto.	splink.mun
Cavanillesia umbellata	-34.8811	-8.05389	IPA	NA	Bocage, A.	Brasil	PE	Recife	Dois Irmãos, Praça de Dois Irmãos.	NA	3	1997	Alves, J.L.H.	IPA-56095		splink.mun
Cavanillesia umbellata	-42.0725	-22.76	HUEFS	176071	NA	Brazil	RJ	NA	rodovia para Cabo Frio.	4	8	2011	Carvalho-Sobrinho, J.G.de	3199	Fragmento de mata estacional na beira da estrada, com Cavanillesia, Ceiba e muitas Bignoniaceae lianescentes	gbif
Cavanillesia umbellata	-42.0725	-22.76	HUEFS	176071		Brasil	RJ	São Pedro da Aldeia	rodovia para Cabo Frio.	4	8	2011	Carvalho-Sobrinho, J.G.de	3199	Fragmento de mata estacional na beira da estrada, com Cavanillesia, Ceiba e muitas Bignoniaceae lianescentes	splink
Cavanillesia umbellata	-35.2378	-6.07472	MAC	NA	R.A.Costa	Brasil	RN	São José de Mipibú	Tropical Eco Resort.	22	10	2006	R.A.Costa	34	Árvore. Flores amarelas. Frutos verdes.HABITAT:Borda da Mata.;	splink.mun
Cavanillesia umbellata	-43.916667	-14.333333	E	E00100860	NA	Brazil	MG	NA	Municipio de Manga.Between Caninanha and Manga. Between Caninanha and Manga	4	8	1998	Ratter, James Alexander	R8061	NA	gbif
Cavanillesia umbellata	-43.916667	-14.333333	E	E00100859	NA	Brazil	MG	NA	Municipio de Manga.Between Caninanha and Manga. Between Caninanha and Manga	4	8	1998	Ratter, James Alexander	R8061	NA	gbif
Cavanillesia umbellata	-43.916667	-14.333333	E	E00100860	NA	Brazil	MG	NA	Municipio de Manga.Between Caninanha and Manga. Between Caninanha and Manga	4	8	1998	Ratter, James Alexander	R8061	NA	gbif
Cavanillesia umbellata	-43.916667	-14.333333	E	E00100859	NA	Brazil	MG	NA	Municipio de Manga.Between Caninanha and Manga. Between Caninanha and Manga	4	8	1998	Ratter, James Alexander	R8061	NA	gbif
Cavanillesia umbellata	-75.033333	-9.683333	MO	1483389	A. Gentry	Peru	Ucayali	NA	Carretera Marginal, 22 km S of Km 86.	11	2	1981	Alwyn H. Gentry|Sue Libenson|Kenneth Young|Mark E. Olson	Gentry 31213	NA	gbif
